Community Area Name,Community Area Number,Property Type,Property Name,Address,Zip Code,Phone Number,Management Company,Units,X Coordinate,Y Coordinate,Latitude,Longitude,Location
Albany Park,14,Senior,Mayfair Commons,4444 W. Lawrence Ave.,60630,773-205-7862,"Metroplex, Inc.",97,1145674.7538177613,1931569.979044555,41.9682242321,-87.7397474866,"(41.9682242321, -87.7397474866)"
Albany Park,14,Senior,Senior Suites of Ravenswood Manor,2800 W. Montrose Ave.,60618,773-509-9333,Senior Lifestyle Corp.,80,1156898.5139453819,1929148.4609726223,41.9613586525,-87.6985441744,"(41.9613586525, -87.6985441744)"
Albany Park,14,Senior,Darul Amaan Senior Living,4814-58 N. Kedzie Ave.,60625,773-463-3004,East Lake Management & Development Corp.,56,1154133.1245140075,1931889.1596844296,41.9689350644,-87.7086378257,"(41.9689350644, -87.7086378257)"
Ashburn,70,Senior,Wrightwood Senior Apts.,2815 W. 79th St.,60652,773-471-7777,Ludwig and Company,85,1158906.9337661215,1852040.9542699235,41.7497264566,-87.6932733372,"(41.7497264566, -87.6932733372)"
Auburn Gresham,71,Multifamily,Stone Terrace,8440 S. Parnell Ave.,60620,773-651-9234,East Lake Management & Development Corp.,56,1174067.0161528846,1848682.073813996,41.740186358,-87.6378199128,"(41.740186358, -87.6378199128)"
Auburn Gresham,71,Senior HUD 202,St. Sabina Elder Village Apts.,1222 W. 79th St.,60620,773-994-7850,Catholic Charities Housing Devp.,80,1169422.9298314867,1852437.4683081156,41.7505934139,-87.6547267546,"(41.7505934139, -87.6547267546)"
Auburn Gresham,71,Senior,Senior Suites of Auburn-Gresham,1050 W. 79th St.,60620,773-723-0333,Senior Lifestyle Corp.,85,1170460.9005370243,1852465.7954619504,41.7506486193,-87.6509223206,"(41.7506486193, -87.6509223206)"
Auburn Gresham,71,Senior HUD 202,Naomi & Sylvester Smith Senior Living Ctr.,8019-55 S. Halsted St.,60620,773-651-6400,"HSR Property Services, LLC",59,1172404.4659361218,1851597.1338227245,41.7482223777,-87.6438256988,"(41.7482223777, -87.6438256988)"
Auburn Gresham,71,Senior,Auburn Commons,1626 W. 87th St.,60620,773-238-0850,"Urban Property Advisors, LLC",72,1166895.2399723816,1847057.795509487,41.7358851523,-87.6641427166,"(41.7358851523, -87.6641427166)"
Auburn Gresham,71,Supportive/Veterans,Veteran's New Beginnings,8132-44 S. Racine Ave.,60620,773-488-2317,"HSR Property Services, LLC",54,1169700.3070290326,1850714.7778847737,41.7458601099,-87.6537601722,"(41.7458601099, -87.6537601722)"
Austin,25,Multifamily,Pine Central,557 N. Pine Ave.,60644,773-568-1020,NHS Redevelopment Corp.,78,1139471.8964290908,1903210.8349472568,41.8905193977,-87.7632486365,"(41.8905193977, -87.7632486365)"
Austin,25,Senior,Senior Suites of Austin,335 N. Menard Ave.,60644,773-378-0333,Senior Lifestyle Corp.,84,1137686.376645474,1901819.130569767,41.8867327472,-87.7698395847,"(41.8867327472, -87.7698395847)"
Austin,22,Multifamily,Madison Renaissance Apts.,1816 N. St. Louis Ave.,60647,773-227-1366,Related Management Co. LP,30,1152932.1061951534,1911940.4973095902,41.9142183771,-87.7135842866,"(41.9142183771, -87.7135842866)"
Austin,25,Supportive Housing,Menard Apartments,334 N. Menard Ave.,60644,773-572-5272,The Thresholds,57,1137606.4146619358,1901816.6645631457,41.8867274207,-87.7701332901,"(41.8867274207, -87.7701332901)"
Austin,25,Multifamily,Rebecca Walker Complex,126 S. Central Ave.,60644,773-261-1550,Affordable Property Management Specialist,40,1139038.207738362,1898825.9744650354,41.8784946733,-87.7649480305,"(41.8784946733, -87.7649480305)"
Austin,25,Multifamily,Rebecca Walker Complex,223-9 S. Central Ave.,60644,773-261-1550,Affordable Property Management Specialist,12,1139130.0755862487,1898499.8733970954,41.8775981392,-87.7646186402,"(41.8775981392, -87.7646186402)"
Austin,25,Multifamily,Rebecca Walker Complex,5565-71 W. Quincy Ave.,60644,773-261-1550,Affordable Property Management Specialist,12,1139234.679867539,1898405.584397663,41.8773374951,-87.7642368505,"(41.8773374951, -87.7642368505)"
Austin,25,Multifamily,Congress Commons LLC,504 S. Laramie Ave.,60644,773-287-1592,Congress Commons LLC,161,1141766.8175998074,1897120.6862710943,41.873765121,-87.7549712034,"(41.873765121, -87.7549712034)"
Austin,25,Senior HUD 202,Enola A. Dew Senior Apts.,4623 W. Gladys Ave.,60644,773-287-2972,"Prairie Management & Development, Inc.",60,1145481.1114175122,1897910.062111502,41.8758617765,-87.7413139552,"(41.8758617765, -87.7413139552)"
Austin,25,Senior HUD 202,Elois McCoy Village Apts.,4650 W. Van Buren St.,60644,773-626-5320,"Prairie Management & Development, Inc.",60,1145250.3076783537,1897655.194765888,41.875166755,-87.7421678378,"(41.875166755, -87.7421678378)"
Austin,25,Supportive/Teenage Moms,Home for New Moms,5327 W. Chicago Ave.,60651,773-610-7696,"New Moms, Inc.",40,1140544.651551851,1904774.7812520766,41.8947914314,-87.7592704828,"(41.8947914314, -87.7592704828)"
Avalon Park,45,Senior,Montclare Senior Residences of Avalon Park,1200 E. 78th St.,60619,773-933-9000,Montclare Senior Residences,102,1185587.7421578558,1853564.4589579385,41.7533208609,-87.5954564009,"(41.7533208609, -87.5954564009)"
Avondale,21,Supportive Housing,Milwaukee Ave. Apts.,3060 N. Milwaukee Ave.,60618,312-967-3700,Full Circle Management,32,1151100.7815631295,1920108.203467545,41.9366673862,-87.7200977199,"(41.9366673862, -87.7200977199)"
Belmont Cragin,19,ARO,2917-39 N. Central,2917-39 N. Central Ave.,60634,708-867-3799,Zitella Development,3,1138569.742443388,1918921.6328086043,41.9336480472,-87.7661803002,"(41.9336480472, -87.7661803002)"
Belmont Cragin,19,Senior,Senior Suites of Belmont-Cragin,6045 W. Grand Ave.,60639,773-237-1333,Senior Lifestyle Corp.,86,1135526.173557574,1914216.3828398387,41.9207910105,-87.7774775508,"(41.9207910105, -87.7774775508)"
Belmont Cragin,19,Senior,Senior Suites of Kelvyn Park,2715 N. Cicero Ave.,60639,773-252-0333,Senior Lifestyle Corp.,85,1143963.794996609,1917674.6468974263,41.9301265688,-87.7463885389,"(41.9301265688, -87.7463885389)"
Belmont Cragin,19,Senior,Crystal Courts/Anixter Center,5038 W. Armitage Ave.,60639,773-385-9080,Lester and Rosalie Anixter Center,17,1142340.781111415,1912865.6593521584,41.916960542,-87.7524724894,"(41.916960542, -87.7524724894)"
Belmont Cragin,19,Senior,Cicero & George Elderly Apts.,4800 W. George St.,60641,312-291-5420,Hispanic Housing Dev. Corp.,70,1143845.624198203,1918889.6705581376,41.9334629306,-87.7467922468,"(41.9334629306, -87.7467922468)"
Bridgeport,60,Senior,Senior Suites of Bridgeport,2825 S. Halsted St.,60608,312-326-0333,Senior Lifestyle Corp.,85,1171468.4089095024,1886029.5277608237,41.8427291512,-87.6462472701,"(41.8427291512, -87.6462472701)"
Brighton Park,58,Multifamily,El ZÃ³calo,3246 W. 47th St.,60632,312-870-4747,H&J Real Estate Management,30,1155315.538183843,1873325.098236329,41.8082058904,-87.7058647387,"(41.8082058904, -87.7058647387)"
Chatham,44,Supportive Housing,Karibuni Place,8200 S. Ellis Ave.,60619,773-873-0708,Heartland Housing,72,1184284.1534667031,1850796.8943722805,41.7457569581,-87.6003199107,"(41.7457569581, -87.6003199107)"
Chatham,44,Senior,Senior Suites of Chatham,8300 S. Cottage Grove Ave.,60619,773-488-1333,Senior Lifestyle Corp.,90,1182964.715820796,1850099.4442601332,41.743873821,-87.6051761606,"(41.743873821, -87.6051761606)"
Chicago Lawn,66,Senior,Lawn Terrace Apts.,3214 W. 63rd Pl,60629,773-925-2815,Greater Southwest Dev. Corp.,102,1155938.0920476676,1862375.0314674582,41.7781448626,-87.7038754099,"(41.7781448626, -87.7038754099)"
Chicago Lawn,66,Senior,Senior Suites of Marquette Village,7430 S. Rockwell St.,60629,773-432-8420,Senior Lifestyle Corp.,93,1160293.921943526,1855122.4462694346,41.7581541131,-87.6881061075,"(41.7581541131, -87.6881061075)"
Chicago Lawn,66,Senior,Churchview Manor Independent Living,2626 W. 63rd St.,60629,773-925-0730,Greater Southwest Dev. Corp.,60,1159807.027511733,1862817.6897337392,41.7792809902,-87.6896794864,"(41.7792809902, -87.6896794864)"
Chicago Lawn,66,Senior,Churchview Supportive Assisted Living,2626 W. 63rd St.,60629,773-471-4444,Greater Southwest Dev. Corp.,86,1159807.027511733,1862817.6897337392,41.7792809902,-87.6896794864,"(41.7792809902, -87.6896794864)"
Douglas,35,Multifamily,Park Boulevard IA,3845 S. State St.,60609,773-548-8792,"Urban Property Advisors, LLC",80,1176967.1197216897,1879322.1676457142,41.8242011421,-87.6262712265,"(41.8242011421, -87.6262712265)"
Douglas,35,Multifamily,Park Boulevard IIA,17 W. 36th St.,60609,773-548-8792,"Urban Property Advisors, LLC",36,1176708.7667284424,1881091.478702779,41.8290621083,-87.6271656778,"(41.8290621083, -87.6271656778)"
Douglas,35,Multifamily,Park Boulevard IIA,3604 S. State St.,60609,773-548-8792,"Urban Property Advisors, LLC",6,1176845.9146180158,1881076.3818232405,41.8290175865,-87.6266629487,"(41.8290175865, -87.6266629487)"
Douglas,35,Multifamily,Park Boulevard IIA,3612 S. State St.,60609,773-548-8792,"Urban Property Advisors, LLC",6,1176848.8921292,1880973.883357372,41.8287362552,-87.6266551179,"(41.8287362552, -87.6266551179)"
Douglas,35,Multifamily,Park Boulevard IIA,3640 S. State St.,60609,773-548-8792,"Urban Property Advisors, LLC",80,1176856.6105213976,1880678.421982759,41.8279253109,-87.6266357171,"(41.8279253109, -87.6266357171)"
Douglas,35,Multifamily,Park Boulevard IB,3506 S. State St.,60609,773-548-8792,"Urban Property Advisors, LLC",54,1176805.9513533777,1881719.1078143609,41.8307821806,-87.6267901762,"(41.8307821806, -87.6267901762)"
Douglas,35,Multifamily,Park Boulevard IIB,3633 S. State St.,60609,773-548-8792,"Urban Property Advisors, LLC",12,1176929.887869035,1880943.1855750282,41.8286501893,-87.6263588794,"(41.8286501893, -87.6263588794)"
Douglas,35,Multifamily,Park Boulevard IIB,10 W. 37th St.,60609,773-548-8792,"Urban Property Advisors, LLC",12,1176772.4896549408,1880503.0136948659,41.8274458746,-87.6269496359,"(41.8274458746, -87.6269496359)"
Douglas,35,Mutifamily,Park Boulevard IIB,15 W. 37th St.,60609,773-548-8792,"Urban Property Advisors, LLC",12,1176697.6800408491,1880416.0485266007,41.8272089226,-87.6272267219,"(41.8272089226, -87.6272267219)"
Douglas,35,Multifamily,Park Boulevard IIB,3700 S. Dearborn St.,60609,773-548-8792,"Urban Property Advisors, LLC",72,1176529.6000626055,1880409.3094170648,41.8271942191,-87.6278435793,"(41.8271942191, -87.6278435793)"
Douglas,35,Multifamily,South Park Plaza,2600 S. King Dr.,60616,312-674-9210,Woodlawn Comm. Dev. Corp.,134,1179206.472330668,1887158.1958682442,41.8456529118,-87.617816391,"(41.8456529118, -87.617816391)"
Douglas,35,Senior,Pioneer Gardens Supportive Living,3800 S. King Dr.,60653,773-420-4100,Pioneer Gardens Senior Housing,120,1179441.3581913854,1879836.3986584914,41.8255559976,-87.6171784181,"(41.8255559976, -87.6171784181)"
Douglas,35,Senior,Pioneer Village Apts.,340 E. 38th St.,60653,773-536-0463,Pioneer Affordable Housing Preservation,152,1179348.3600891535,1879907.4959198073,41.8257532207,-87.6175174282,"(41.8257532207, -87.6175174282)"
Douglas,35,ARO,Unity Hall,3138-40 S. Indiana Ave.,60616,312-929-2608,TRB properties,2,1178081.3036449256,1884060.02112515,41.8371769457,-87.6220397684,"(41.8371769457, -87.6220397684)"
Dunning,17,Senior,Autumn Green at Wright Campus,4239 N. Oak Park Ave.,60634,773-202-3388,Senior Lifestyle Corp.,129,1129981.0183291987,1927628.4836435749,41.9576922115,-87.7975440334,"(41.9576922115, -87.7975440334)"
East Garfield Park,27,Multifamily,Ike Sims Village,3333 W. Maypole Ave.,60624,773-638-1818,Village Green Management Co.,200,1153978.228846477,1900741.035115148,41.8834651917,-87.7100399091,"(41.8834651917, -87.7100399091)"
East Garfield Park,27,Multifamily/Artists,Switching Station Lofts,15 S. Homan Ave.,60624,312-859-0577,Holsten Management Corp.,24,1153767.678032582,1899627.5293921034,41.8804138115,-87.7108427298,"(41.8804138115, -87.7108427298)"
East Garfield Park,27,Senior,Heritage Woods of Chicago,2800 W. Fulton St.,60612,773-722-2900,BMA Management Ltd.,113,1157640.848234929,1901927.1547658308,41.8866462303,-87.696558136,"(41.8866462303, -87.696558136)"
East Garfield Park,27,Multifamily,Homan Square Apartments Phase I,750 S. Homan Ave.,60624,773-722-7320,Realty & Mortgage Co.,50,1153790.484760921,1896268.990949446,41.8711971734,-87.7108484249,"(41.8711971734, -87.7108484249)"
East Garfield Park,27,Multifamily,Homan Square Apartments Phase IV,908 S. Central Park Ave.,60624,773-722-7320,Realty & Mortgage Co.,108,1152480.6098086971,1895702.7375189476,41.8696692769,-87.7156724506,"(41.8696692769, -87.7156724506)"
East Garfield Park,27,Multifamily,Homan Square Apartments Phase V,3607 W. Polk St.,60624,773-722-7320,Realty & Mortgage Co.,42,1152413.6927732248,1896087.1805657751,41.8707255523,-87.7159079717,"(41.8707255523, -87.7159079717)"
East Garfield Park,27,Multifamily,Homan Square Apartments Phase VI,3609 W. Arthington St.,60624,773-722-7320,Realty & Mortgage Co.,52,1152417.178059103,1895758.8687434797,41.8698245594,-87.7159038458,"(41.8698245594, -87.7159038458)"
East Garfield Park,27,Supportive Housing,Deborah's Place III,2822 W. Jackson Blvd.,60612,773-638-6490,Deborah's Place,90,1157527.9754137222,1898606.336367213,41.8775358858,-87.6970630483,"(41.8775358858, -87.6970630483)"
East Garfield Park,27,Supportive Housing,East Park Apts.,3300 W. Maypole Ave.,60624,773-826-3300,The Habitat Co.,152,1154287.3392122313,1900828.1298343563,41.8836980221,-87.7089025002,"(41.8836980221, -87.7089025002)"
East Garfield Park,27,Multifamily,Liberty Square Apts.,705-23 S. Independence Ave.,60624,773-538-3800,Bonheur Realty Services Corp.,66,1151407.4614220564,1896705.2397940052,41.8724413776,-87.7195859945,"(41.8724413776, -87.7195859945)"
East Garfiled Park,27,Multifamily,Harvest Homes,3512-46 W. Fifth Ave.,60624,312-216-5103,Realty & Mortgage Co.,36,1153024.1615963918,1898153.8420489626,41.8763846236,-87.7136119356,"(41.8763846236, -87.7136119356)"
Edgewater,77,Multifamily,Winthrop Apts.,6214 N. Winthrop Ave.,60660,773-477-7070,Hunter Properties,108,1167688.7086010627,1941496.3681431552,41.9950154576,-87.6585160357,"(41.9950154576, -87.6585160357)"
Edgewater,77,Senior,Hollywood House Apts.,5700 N. Sheridan Road,60660,773-728-2600,Heartland Housing,93,1168565.9159576842,1938087.0102101795,41.9856410954,-87.6553885441,"(41.9856410954, -87.6553885441)"
Edgewater,77,Senior,Pomeroy Apts.,5650 N. Kenmore Ave.,60660,773-275-7820,Habitat Company,198,1168181.1238168452,1937918.400495236,41.9851867755,-87.656808677,"(41.9851867755, -87.656808677)"
Edgewater,77,Multifamily,Bell Shore Apts.,1062 W. Bryn Mawr Ave.,60660,773-334-5407,Holsten Management Corp.,105,1167941.8132828113,1937401.2566281443,41.9837729037,-87.6577038394,"(41.9837729037, -87.6577038394)"
Englewood,68,Senior,Yale Building,6565 S. Yale Ave.,60621,773-224-7669,Yale Building LLP,140,1175681.0917438765,1861260.6910332246,41.7746676247,-87.6315301982,"(41.7746676247, -87.6315301982)"
Englewood,68,Multifamily,Antioch Homes II,301 W. Marquette Road,60621,773-994-4546,"Universal Management Service, Inc.",69,1175444.812850503,1860492.0838049254,41.7725637689,-87.6324193182,"(41.7725637689, -87.6324193182)"
Englewood,68,People with Disabilities,Victoria Jennings Residences,624 W. 61st St.,60621,773-994-3690,"HSR Property Services, LLC",57,1173046.574629759,1864479.4697238435,41.7835589092,-87.6410928975,"(41.7835589092, -87.6410928975)"
Englewood,68,Supportive Housing,Rowan Trees Apts.,500 W. Englewood Ave.,60621,773-572-5272,The Thresholds,167,1174002.159513655,1863521.643252472,41.7809093636,-87.637617817,"(41.7809093636, -87.637617817)"
Englewood,68,Supportive Housing,Englewood Apts.,901 W. 63rd Street,60621,773-994-3199,Mercy Housing,45,1171373.6614958383,1863023.3677886287,41.7795999913,-87.6472689598,"(41.7795999913, -87.6472689598)"
Englewood,68,Supportive Housing,Branch of Hope Apts.,5628-30 S. Halsted St.,60621,773-488-7205,Evergreen Real Estate LLC,99,1171893.838747747,1867410.6620249962,41.7916278176,-87.6452332087,"(41.7916278176, -87.6452332087)"
Englewood,68,Supportive/Veterans,Hope Manor II Apts.,6002 S. Halsted St.,60621,773-874-3610,Voluinteers of America Illinois,73,1171959.5651457831,1864993.894313844,41.7849944939,-87.6450631449,"(41.7849944939, -87.6450631449)"
Englewood,68,Senior,Sangamon Terrace,6415 S. Sangamon St.,60621,312-234-9400,Evergreen Real Estate Services,34,1171120.2883740384,1862217.2054180412,41.7773933302,-87.6482214016,"(41.7773933302, -87.6482214016)"
Fuller Park,37,Senior,Fellowship Manor,5041 S. Princeton Ave.,60609,773-924-5980,"East Lake Management Group, Inc.",100,1175183.4790044015,1871367.582271373,41.8024131184,-87.6330525826,"(41.8024131184, -87.6330525826)"
Gage Park,63,Senior,Senior Suites of Gage Park,3244 W. 59th St.,60629,773-434-4333,Senior Lifestyle Corp.,59,1155572.425115435,1865354.4067786196,41.786328045,-87.705136175,"(41.786328045, -87.705136175)"
Garfield Ridge,56,Senior,Senior Suites of Garfield Ridge,5839 S. Harlem Ave.,60638,773-229-1533,Senior Lifestyle Corp.,87,1129403.7448869708,1864822.9118978602,41.7853541249,-87.8010979955,"(41.7853541249, -87.8010979955)"
Garfield Ridge,56,Senior,Midway Pointe Senior Living,5011 W. 47th St.,60638,872-302-4010,Perlmark Realty Management LLC,85,1143675.612651464,1872964.3620531529,41.8074412435,-87.748566779,"(41.8074412435, -87.748566779)"
Grand Boulevard,38,Multifamily,Progressive Square,4752 S. Wabash Ave.,60614,773-975-7234,CMHDC/Progressive NFP/Kass Management,107,1177483.2463556484,1873312.722072644,41.8076990345,-87.6245595889,"(41.8076990345, -87.6245595889)"
Grand Boulevard,38,Senior,Park Boulevard Tower/Grand Renaissance Apts.,4257 S. King Dr.,60653,773-268-4642,"East Lake Management Group, Inc.",24,1179612.435611574,1876628.6050863636,41.8167496439,-87.6166489475,"(41.8167496439, -87.6166489475)"
Grand Boulevard,38,Multifamily,Geneva Gables,4420-24 S. Michigan Ave.,60653,773-924-7700,Tri-Mart Management Co.,65,1177858.6856956813,1875634.1971797955,41.8140608614,-87.6231122243,"(41.8140608614, -87.6231122243)"
Grand Boulevard,38,Multifamily,Paul G. Stewart Phase III Tower,401 E. Bowen Ave.,60653,312-924-2100,Paul G. Stewart Assoc.,180,1179658.6473742288,1877532.3419499588,41.8192285127,-87.6164517753,"(41.8192285127, -87.6164517753)"
Grand Boulevard,38,Multifamily,Paul G. Stewart Phase V,400 E. 41st St.,60653,773-924-2100,Paul G. Stewart Assoc.,20,1179638.2483418202,1877940.683099849,41.8203495003,-87.6165141095,"(41.8203495003, -87.6165141095)"
Grand Boulevard,38,Supportive Housing,Washington Park SRO,5000 S. Indiana Ave.,60615,773-924-1107,"East Lake Management Group, Inc.",96,1178406.436772831,1871882.895572396,41.8037545212,-87.6212170565,"(41.8037545212, -87.6212170565)"
Grand Boulevard,38,Senior HUD 202,Margaret Ford Manor Independent Living,4500 S. Wabash Ave.,60653,773-924-9171,"HSR Property Services, LLC",63,1177427.156074382,1875236.6231905173,41.8129796596,-87.6247071273,"(41.8129796596, -87.6247071273)"
Grand Boulevard,38,Multifamily,Legends South - Hansberry Square,4034 S. State St.,60609,773-548-8800,Interstate Realty Management Co.,181,1176907.6358102283,1878122.6231740906,41.8209108342,-87.6265256539,"(41.8209108342, -87.6265256539)"
Grand Boulevard,38,Multifamily,Legends South - Savoy Square,4448 S. State St.,60609,773-855-2209,Interstate Realty Management Co.,220,1176982.246436822,1875311.406647018,41.8131949278,-87.6263367998,"(41.8131949278, -87.6263367998)"
Grand Boulevard,38,Multifamily,Legends South - Mahalia Place,116 E. 43rd St.,60653,773-285-9500,Interstate Realty Management Co.,110,1178081.8752660828,1876584.156148254,41.816662565,-87.6222647175,"(41.816662565, -87.6222647175)"
Grand Boulevard,38,Multifamily,Legends South - Coleman Place,223 E. 41st St.,60653,773-268-0202,Interstate Realty Management Co.,118,1178573.5197471243,1877831.6285598048,41.820074554,-87.6204232972,"(41.820074554, -87.6204232972)"
Grand Boulevard,38,Multifamily,Legends South - Gwendolyn Place,4333 S. Michigan Ave.,60653,773-624-7676,Interstate Realty Management Co.,71,1177923.9036458873,1876177.552666537,41.8155503961,-87.6228565224,"(41.8155503961, -87.6228565224)"
Grand Boulevard,38,Senior,Bronzeville Senior Apts.,460 E. 41st St.,60653,773-924-2100,Peoples Co-Op Management Service,97,1180219.198851359,1877957.2141656575,41.8203815435,-87.6143824354,"(41.8203815435, -87.6143824354)"
Grand Boulevard,38,Artist Live/Work Space,Bronzeville Artists Lofts,436 E. 47th St.,60653,773-324-1745,Revere Properties,16,1180131.925525073,1873998.5195045283,41.8095205688,-87.614824016,"(41.8095205688, -87.614824016)"
Grand Boulevard,38,Multifamily,Bronzeville Family Apts.,400 E. 41st St.,60653,773-924-2100,Peoples Co-Op Management Service,60,1179638.2483418202,1877940.683099849,41.8203495003,-87.6165141095,"(41.8203495003, -87.6165141095)"
Grand Boulevard,38,Multifamily,Shops & Lofts at 47,747 E. 47th St.,60653,855-618-4959,The Community Builders Inc.,72,1182241.945814585,1873977.256685763,41.8094135532,-87.6070855618,"(41.8094135532, -87.6070855618)"
Grand Boulevard,38,Multifamily,Cornerstone Apts.,4950 S. Langley Ave.,60615,312-577-5555,The Community Builders Inc.,21,1181729.2966575553,1872129.6165571965,41.8043553511,-87.6090229601,"(41.8043553511, -87.6090229601)"
Grand Boulevard,38,Multigfamily,Cornerstone Apts.,731 E. 50th Pl,60615,312-577-5555,The Community Builders Inc.,24,1182124.4353024266,1871654.4162788903,41.803042216,-87.6075885068,"(41.803042216, -87.6075885068)"
Grand Boulevard,38,Multifamily,Cornerstone Apts.,611 E. 50th St.,60615,312-577-5555,The Community Builders Inc.,8,1181237.493213352,1871959.1962304306,41.8038990623,-87.6108319018,"(41.8038990623, -87.6108319018)"
Grand Boulevard,38,Multifamily,Cornerstone Apts.,633 E. 50th St.,60615,312-577-5555,The Community Builders Inc.,7,1181425.624092162,1871964.801214167,41.8039101011,-87.6101417643,"(41.8039101011, -87.6101417643)"
Grand Boulevard,38,Multifamily,Cornerstone Apts.,636 E. 50th St.,60615,312-577-5555,The Community Builders Inc.,5,1181481.5543287941,1872046.5095493707,41.804133024,-87.6099341196,"(41.804133024, -87.6099341196)"
Grand Boulevard,38,Senior,Evans Langley,727 E. 50th Pl,60615,312-368-8610,"Metroplex, Inc.",60,1182079.079586791,1871653.1259029103,41.8030397258,-87.6077548852,"(41.8030397258, -87.6077548852)"
Grand Boulevard,38,Multifamily,Indiana Manor Town Homes,4427-33 S. Indiana Ave.,60653,773-268-5326,Indiana Manor Townhomes,87,1178382.5134062956,1875605.7840145205,41.8139709971,-87.6211916565,"(41.8139709971, -87.6211916565)"
Grand Boulevard,38,Multifamily,Hearts United I-The Langston (scattered sites),722-46 E. Bowen Ave.,60653,773-924-2100,Bonheur Realty Services Corp.,116,1181829.598427389,1877677.359860925,41.8195764741,-87.6084834879,"(41.8195764741, -87.6084834879)"
Grand Boulevard,38,Multifamily,Hearts United II-The Quincy (scattered sites),701-27 E. 43rd St.,60653,773-924-2100,Bonheur Realty Services Corp.,81,1181681.4006680325,1876615.5054965536,41.8166660946,-87.6090599647,"(41.8166660946, -87.6090599647)"
Grand Boulevard,38,Multifamily,Hearts United III-The Leontyne (scattered sites),4340-2 S. Champlain St.,60653,773-924-2100,Bonheur Realty Services Corp.,53,1181273.6563283482,1876588.698283308,41.8166019546,-87.6105564793,"(41.8166019546, -87.6105564793)"
Grand Boulevard,38,Multifamily,Rosenwald Courts Apts.,4642 S. Michigan Ave.,60653,773-819-2267,Mercy Housing,239,1177902.2050109168,1874091.161156775,41.809825649,-87.6229993768,"(41.809825649, -87.6229993768)"
Greater Grand Crossing,69,Multifamily,Englewood Gardens,6956 S. Vincennes Ave.,60621,773-994-4830,"East Lake Management Group, Inc.",24,1176891.268251813,1858664.4336695173,41.7675160252,-87.6271720535,"(41.7675160252, -87.6271720535)"
Greater Grand Crossing,69,Artist Housing,Dorchester Art + Housing Collaborative,1450 E. 70th St.,60619,773-324-2270,Leasing & Management Co. Inc.,32,1187273.420073689,1858913.3379495782,41.7679588345,-87.5891095264,"(41.7679588345, -87.5891095264)"
Hegewisch,55,Senior,Senior Suites of Hegewisch,13550 S. Avenue O,60633,773-646-1333,Senior Lifestyle Corp.,116,1201038.0588749289,1815487.7333030126,41.6484574114,-87.540123166,"(41.6484574114, -87.540123166)"
Humboldt Park,23,Supportive Housing,Sanctuary Place,642 N. Kedzie Ave.,60612,773-265-0983,Interfaith Housing Corp.,84,1154880.6034761437,1904286.6392746218,41.8931766425,-87.7066312185,"(41.8931766425, -87.7066312185)"
Humboldt Park,23,Supportive Housing,Humboldt Park Residences,1152 N. Christiana Ave.,60647,773-276-5338 ext. 225,LUCHA,69,1153731.4411072168,1907707.148117049,41.9025857989,-87.7107605283,"(41.9025857989, -87.7107605283)"
Humboldt Park,23,Multifamily,Bloomingdale Apts.,1745 N. Keystone Ave.,60639,773-276-2965,Village Green Management Co.,48,1149146.6362585528,1911465.9388707278,41.9129903623,-87.7275039055,"(41.9129903623, -87.7275039055)"
Humboldt Park,23,Multifamily,Spaulding Apartments,1750 N. Spaulding Ave.,60647,773-381-7400,G&A Management,111,1153823.719226805,1911621.6283910712,41.9133256466,-87.7103171384,"(41.9133256466, -87.7103171384)"
Humboldt Park,23,Supportive/Males 18-24yrs.,Solid Ground Supportive Housing Program,3507 W. North Ave.,60647,773-276-4900,"La Casa Norte, Inc.",35,1152641.1153722291,1910367.063442813,41.9099064976,-87.7146950394,"(41.9099064976, -87.7146950394)"
Humboldt Park,23,Multifamily,Madres Unidas (scattered sites),3541 W. North Ave.,60647,773-276-5338 ext. 225,LUCHA,80,1152271.5245463105,1910359.2407422592,41.9098923382,-87.7160529794,"(41.9098923382, -87.7160529794)"
Humboldt Park,23,Senior,LUCHA Affordable Units,3541 W. North Ave.,60647,312-276-5338,LUCHA,69,1152271.5245463105,1910359.2407422592,41.9098923382,-87.7160529794,"(41.9098923382, -87.7160529794)"
Humboldt Park,23,Multifamily,La Estancia,3220 W. Division St.,60651,773-227-6332,Bickerdike Apts.,18,1154584.6629430514,1907840.061069645,41.9029334898,-87.7076229238,"(41.9029334898, -87.7076229238)"
Humboldt Park,23,Multifamily,La Estancia,3248 W. Division St.,60651,773-227-6332,Bickerdike Apts.,9,1154314.3195338387,1907834.5260998942,41.902923708,-87.7086160992,"(41.902923708, -87.7086160992)"
Humboldt Park,23,Multifamily,Rosa Parks Apts.,3215 W. Huron St.,60624,773-227-6332,Bickerdike Apts.,6,1154724.0859476165,1904442.8107750104,41.8936083276,-87.7072018666,"(41.8936083276, -87.7072018666)"
Humboldt Park,23,Multifamily,Rosa Parks Apts.,649 N. Sawyer Ave.,60624,773-227-6332,Bickerdike Apts.,6,1154625.79251378,1904362.1017843606,41.8933888222,-87.707565028,"(41.8933888222, -87.707565028)"
Humboldt Park,23,Multifamily,Rosa Parks Apts.,601 N. Drake Ave,60624,773-227-6332,Bickerdike Apts.,6,1152648.9780603442,1903805.8046822094,41.8919016207,-87.714839929,"(41.8919016207, -87.714839929)"
Humboldt Park,23,Multifamily,Rosa Parks Apts.,521 N. St. Louis Ave.,60624,773-227-6332,Bickerdike Apts.,6,1152991.42864546,1903446.1554626275,41.8909079269,-87.7135917923,"(41.8909079269, -87.7135917923)"
Humboldt Park,23,Multifamily,Rosa Parks Apts.,526 N. St. Louis Ave.,60624,773-227-6332,Bickerdike Apts.,12,1152910.964133507,1903460.2124746686,41.8909480951,-87.7138869273,"(41.8909480951, -87.7138869273)"
Humboldt Park,23,Multifamily,Rosa Parks Apts.,532 N. Trumbull Ave.,60624,773-227-6332,Bickerdike Apts.,15,1153240.1838587816,1903567.2655607152,41.8912353311,-87.7126750163,"(41.8912353311, -87.7126750163)"
Humboldt Park,23,Multifamily,Rosa Parks Apts.,541 N. Homan Ave.,60624,773-227-6332,Bickerdike Apts.,27,1153649.6031109842,1903659.5203804784,41.891480351,-87.7111689514,"(41.891480351, -87.7111689514)"
Humboldt Park,23,Multifamily,Rosa Parks Apts.,3341 W. Ohio St.,60624,773-227-6332,Bickerdike Apts.,16,1153814.923967682,1903755.6500943932,41.8917408493,-87.7105592395,"(41.8917408493, -87.7105592395)"
Humboldt Park,23,Supportive/Veterans,Hope Manor Apts.,3053 W. Franklin Blvd.,60612,773-475-6703,Volunteers of America Illinois,50,1155690.8006221175,1903132.1533014546,41.8899923467,-87.7036867659,"(41.8899923467, -87.7036867659)"
Humboldt Park,23,Senior,North & Pulaski Senior Housing,3939-59 W. North Ave.,60647,773-687-0234,Hispanic Housing Dev. Corp.,72,1149678.04231574,1910302.3385285835,41.9097870143,-87.7255819184,"(41.9097870143, -87.7255819184)"
Humboldt Park,23,Disabled/Homeless,West Humboldt Place,3543 W. Chicago Ave.,60651,773-826-1230,Childrens Place Association,13,1152439.7235514063,1905064.2204367737,41.8953589753,-87.7155751576,"(41.8953589753, -87.7155751576)"
Humboldt Park,23,Multifamily,Nelson Mandela Apts.,3554 W. Ohio St.,60624,773-227-6332,Bickerdike Apts.,6,1152342.7276052458,1903805.745479267,41.8919075104,-87.7159646599,"(41.8919075104, -87.7159646599)"
Humboldt Park,23,Multifamily,Nelson Mandela Apts.,3525 W. Ohio St.,60624,773-227-6332,Bickerdike Apts.,6,1152627.179346222,1903731.7021087455,41.891698707,-87.7149219479,"(41.891698707, -87.7149219479)"
Humboldt Park,23,Multifamily,Nelson Mandela Apts.,3500 W. Ohio St.,60624,773-227-6332,Bickerdike Apts.,6,1152924.3434480834,1903817.948502331,41.8919294934,-87.7138283059,"(41.8919294934, -87.7138283059)"
Humboldt Park,23,Multifamily,Nelson Mandela Apts.,614 N. Spaulding Ave.,60624,773-227-6332,Bickerdike Apts.,6,1154224.541761808,1903987.9196760752,41.8923700513,-87.7090486845,"(41.8923700513, -87.7090486845)"
Humboldt Park,23,Multifamily,Nelson Mandela Apts.,3224 W. Ohio St.,60624,773-227-6332,Bickerdike Apts.,6,1154618.054624338,1903853.4400290821,41.8919931605,-87.7076070703,"(41.8919931605, -87.7076070703)"
Humboldt Park,23,Multifamily,Nelson Mandela Apts.,607 N. Sawyer Ave.,60624,773-227-6332,Bickerdike Apts.,6,1154639.5479713264,1903911.9929725735,41.8921534052,-87.7075265659,"(41.8921534052, -87.7075265659)"
Humboldt Park,23,Multifamily,Nelson Mandela Apts.,505 N. Troy St.,60612,773-227-6332,Bickerdike Apts.,6,1155324.8837128647,1903322.6402453016,41.8905224214,-87.7050254597,"(41.8905224214, -87.7050254597)"
Humboldt Park,23,Multifamily,Nelson Mandela Apts.,528 N. Troy St.,60624,773-227-6332,Bickerdike Apts.,3,1155237.315582852,1903580.6849842677,41.8912322799,-87.7053401173,"(41.8912322799, -87.7053401173)"
Humboldt Park,23,Multifamily,Nelson Mandela Apts.,526 N. Troy St.,60624,773-227-6332,Bickerdike Apts.,6,1155237.9587949093,1903558.990556119,41.8911727354,-87.7053383382,"(41.8911727354, -87.7053383382)"
Humboldt Park,23,Multifamily,Nelson Mandela Apts.,3108 W. Franklin Blvd.,60624,773-227-6332,Bickerdike Apts.,6,1155507.6505134571,1903207.9467011332,41.890204017,-87.7043573374,"(41.890204017, -87.7043573374)"
Humboldt Park,23,Multifamily,Nelson Mandela Apts.,3114 W. Franklin Blvd.,60624,773-227-6332,Bickerdike Apts.,6,1155445.1763388533,1903206.4999891939,41.8902013035,-87.7045868112,"(41.8902013035, -87.7045868112)"
Humboldt Park,23,Multifamily,Nelson Mandela Apts.,3118 W. Franklin Blvd.,60624,773-227-6332,Bickerdike Apts.,6,1155403.5319124167,1903205.5310607017,41.8901994819,-87.7047397754,"(41.8901994819, -87.7047397754)"
Humboldt Park,23,Multifamily,Nelson Mandela Apts.,3145 W. Franklin Blvd.,60624,773-227-6332,Bickerdike Apts.,6,1155134.6932931277,1903119.2603696918,41.8899681469,-87.7057293959,"(41.8899681469, -87.7057293959)"
Hyde Park,41,Multifamily,Hyde Park Apts.,5330 S. Harper Ave.,60615,773-955-2610,"DRE, Inc.",36,1187148.2339917526,1870068.2507340526,41.7985717841,-87.5892145402,"(41.7985717841, -87.5892145402)"
Hyde Park,41,ARO,5432-44 S. Woodlawn,5432 S. Woodlawn Ave.,60615,312-480-0933,Chicago Apartment Finders,10,1185102.5613347285,1869464.413134199,41.7969631559,-87.5967353133,"(41.7969631559, -87.5967353133)"
Hyde Park,41,ARO,Vue53,1330 E. 53rd St.,60615,773-355-4972,Peak Campus,27,1185905.3198008323,1870431.451630648,41.7995978694,-87.5937610369,"(41.7995978694, -87.5937610369)"
Hyde Park,41,ARO,City Hyde Park,5105 S. Harper Ave.,60615,773-548-5077,Mac Properties,36,1187193.9075670699,1871412.920579398,41.8022605699,-87.5890043476,"(41.8022605699, -87.5890043476)"
Irving Park,16,Senior,Senior Residence at Kedzie,4054 N. Kedzie Ave.,60618,773-381-7400,G&A Management,51,1154285.6870925426,1927005.6427548034,41.9555313337,-87.7082078565,"(41.9555313337, -87.7082078565)"
Jefferson Park,11,Senior,Senior Suites of Jefferson Park,5400 N. Northwest Hwy.,60630,773-775-7333,Senior Lifestyle Corp.,73,1136226.971295093,1935211.1854214636,41.9783903918,-87.7743995653,"(41.9783903918, -87.7743995653)"
Kenwood,39,Multifamily,Jazz on the Boulevard (scattered sites),4657 S. Drexel Blvd,60653,312-660-1300,Heartland Housing,81,1183149.4551670926,1874094.4100914083,41.8097139386,-87.6037533683,"(41.8097139386, -87.6037533683)"
Kenwood,39,Multifamily,Drexel Preservation,837 E. 47th St.,60653,773-624-4901,MLG Management,39,1182801.3254214067,1873991.9476500086,41.8094408765,-87.6050334227,"(41.8094408765, -87.6050334227)"
Lakeview,6,Senior,Renaissance St. Luke Greenview Place,1501 W. Melrose St.,60657,773-525-1501,"RRG Development, Inc.",155,1165704.8480373912,1921625.293870648,41.9405311557,-87.6663826053,"(41.9405311557, -87.6663826053)"
Lakeview,6,Supportive,Buffet Place,3208 N. Shefield Ave.,60657,312-572-5272,Thresholds,51,1169002.9432991273,1921540.7596174988,41.9402281368,-87.6542634882,"(41.9402281368, -87.6542634882)"
Lakeview,6,Senior LGBTQ,Town Hall Apts.,3600 N. Halsted St.,60613,773-472-6463,Heartland Houing Inc.,79,1170240.9300695786,1924164.846874417,41.947401735,-87.6496365844,"(41.947401735, -87.6496365844)"
Lakeview,6,ARO,Viridian on Sheridan,734 W. Sheridan Rd.,60613,847-250-4900,rmk Management,2,1170305.6618076216,1926158.0310532541,41.9528696876,-87.6493401794,"(41.9528696876, -87.6493401794)"
Lakeview,6,ARO,Clarkview Apts.,3228 N. Clark St.,60657,773-562-6149,Glascott Realty,2,1169778.2110071601,1921699.271865131,41.9406462133,-87.6514095081,"(41.9406462133, -87.6514095081)"
Lakeview,6,ARO,927 W. Irving,927 W. Irving Park Rd.,60613,773-665-0103,DLG Management,1,1169246.1256515747,1926706.6233709217,41.9543981834,-87.6532190636,"(41.9543981834, -87.6532190636)"
Lincoln Square,4,ARO,Ravenswood Terrace,1801-15 W. Argyle St.,60640,773-444-8733,Kass Management,15,1163292.3820168145,1933204.7028903547,41.9723567701,-87.6749222533,"(41.9723567701, -87.6749222533)"
Lincoln Square,4,ARO,The Westner,4618 N. Western Ave.,60625,773-975-7234,Kass Management,2,1159495.4068958515,1930676.175600869,41.9654975932,-87.6889543312,"(41.9654975932, -87.6889543312)"
Logan Square,22,Multifamily,Rev. Daniel Alvarez Apts.,2451-57 N. Sacramento Ave.,60612,773-772-4063,Hispanic Housing Dev. Corp.,96,1155995.815179278,1916357.8444731145,41.926278629,-87.7022092387,"(41.926278629, -87.7022092387)"
Logan Square,22,Senior,Renaissance West,2517 W. Fullerton Ave.,60647,773-862-2500,Renaissance Realty Group Inc.,41,1159142.5632841722,1915828.5607318971,41.9247620985,-87.6906609777,"(41.9247620985, -87.6906609777)"
Logan Square,22,Multifamily,Zapata Apts.,3230 W. Armitage Ave,60647,773-227-6332,Bickerdike Apartments,100,1154370.984515238,1913144.8796982756,41.9174946519,-87.7082658078,"(41.9174946519, -87.7082658078)"
Logan Square,22,Multifamily,Zapata Apts.,3503 W. Armitage Ave,60647,773-227-6332,Bickerdike Apartments,12,1152897.6344778591,1913030.1929008735,41.9172092811,-87.713682006,"(41.9172092811, -87.713682006)"
Logan Square,22,Multifamily,Zapata Apts.,1955 N. St. Louis Ave.,60647,773-227-6332,Bickerdike Apartments,3,1152977.1963052873,1913047.5159342072,41.9172552391,-87.7133892335,"(41.9172552391, -87.7133892335)"
Logan Square,22,Multifamily,Zapata Apts.,3734 W. Cortland St.,60647,773-227-6332,Bickerdike Apartments,30,1151016.2570625048,1912402.356670404,41.9155235348,-87.720610728,"(41.9155235348, -87.720610728)"
Logan Square,22,ARO,2211 N. Milwaukee Ave.,2201-31 N. Milwaukee Ave.,60647,773-327-4975,33 Management LLC,12,1158283.9804758646,1914416.079800735,41.9209037608,-87.6938544995,"(41.9209037608, -87.6938544995)"
Logan Square,22,ARO,2501 Armitage,2501 W. Armitage Ave.,60647,312-255-1153,Tandem Property Management,8,1159374.1192553157,1913163.3687141843,41.9174438523,-87.689883619,"(41.9174438523, -87.689883619)"
Logan Square,22,ARO,MiCA,2733 W. Belden Ave.,60647,312-702-2519,2293NMA LLC,22,1157492.6425837276,1915110.0937663715,41.922824344,-87.6967431262,"(41.922824344, -87.6967431262)"
Logan Square,22,ARO,2400 Cortland,2404-14 W. Cortland St.,60647,312-489-1600,Laramar Group,2,1159990.635041397,1912594.266882953,41.9158694795,-87.6876342671,"(41.9158694795, -87.6876342671)"
Logan Square,22,ARO,1955 Richmond Place,1955 N. Richmond St.,60647,847-542-0442,@properties,3,1156536.7415282296,1913073.8709190362,41.9172562069,-87.7003106605,"(41.9172562069, -87.7003106605)"
Logan Square,22,ARO,Noca Blu,2328-48 N. California Ave.,60647,707-483-8708,Pinnacle Living,14,1157275.9177105883,1915411.8679190113,41.9236568473,-87.6975312257,"(41.9236568473, -87.6975312257)"
Loop,32,Multifamily,Randolph Tower City Apts. (studios only),188 W. Randolph St.,60601,312-291-8679,Village Green Management Co.,16,1174747.57210376,1901307.2524319694,41.884579663,-87.6337568335,"(41.884579663, -87.6337568335)"
Lower West Side,31,Multifamily,Casa Puebla,2014 S. Racine Ave.,60608,312-666-1323,The Resurrection Project,63,1168646.2965818448,1890365.9909551519,41.8546902787,-87.6564782084,"(41.8546902787, -87.6564782084)"
Lower West Side,31,Multifamily,Casa Guerrero,963 W Cullerton St.,60608,312-666-1323,The Resurrection Project,52,1170238.8058330964,1890555.1686823391,41.8551748018,-87.6506275348,"(41.8551748018, -87.6506275348)"
Lower West Side,31,Multifamily,Casa Oaxaca,1714 W. 19th St.,60608,312-666-1323,The Resurrection Project,25,1165132.942698977,1890827.8270715745,41.8560328733,-87.6693605655,"(41.8560328733, -87.6693605655)"
Lower West Side,31,Senior,Casa Maravilla,2021 S. Morgan St.,60608,312-666-1323,The Resurrection Project,5,1170051.208277346,1890349.586619211,41.8546147585,-87.6513220922,"(41.8546147585, -87.6513220922)"
Lower West Side,31,Multifamily,Casa Chiapas,1712 W. 17th St.,60608,312-666-1323,The Resurrection Project,72,1165119.3725775955,1891824.7393224898,41.8587687803,-87.6693820787,"(41.8587687803, -87.6693820787)"
Lower West Side,31,Multifamily,Casa Morelos,2015 S. Morgan St.,60608,312-666-1323,The Resurrection Project,4,1170049.3364337627,1890417.7841083359,41.8548019389,-87.6513269744,"(41.8548019389, -87.6513269744)"
Lower West Side,31,Multifamily,Casa Tabasco,2014 S. Racine Ave.,60608,312-850-1935,The Resurrection Project,45,1168646.2965818448,1890365.9909551519,41.8546902787,-87.6564782084,"(41.8546902787, -87.6564782084)"
Lower West Side,31,Multifamily,Casa Monterrey,967 W. 19th St.,60608,312-666-1323,The Resurrection Project,4,1170202.3560892306,1891062.3128613762,41.8565672424,-87.6507465232,"(41.8565672424, -87.6507465232)"
Lower West Side,31,Multifamily,Casa San Luis,1646-50 S. Throop St.,60608,312-666-1323,The Resurrection Project,12,1167939.6414499104,1891689.480276964,41.8583373045,-87.6590337725,"(41.8583373045, -87.6590337725)"
Lower West Side,31,Multifamily,Casa Guanajuato,1313 W. 19th St.,60608,312-666-1323,The Resurrection Project,6,1167849.0484338359,1890829.498763404,41.8559793927,-87.6593910822,"(41.8559793927, -87.6593910822)"
Lower West Side,31,Multifamily,Casa Colima,1427 W. Cullerton St.,60608,312-666-1323,The Resurrection Project,3,1167051.0217178338,1890476.2134995756,41.8550270973,-87.6623303609,"(41.8550270973, -87.6623303609)"
Lower West Side,31,Multifamily,Resurrection Homes,2124 W. 19th St.,60608,312-666-1323,The Resurrection Project,5,1162389.3126571784,1890761.0885235704,41.8559075141,-87.6794329233,"(41.8559075141, -87.6794329233)"
Lower West Side,31,Multifamily,Casa Queretaro,2012 W. 17th St.,60608,312-666-1323,The Resurrection Project,45,1163154.261486676,1891768.7798753935,41.8586566959,-87.6765968934,"(41.8586566959, -87.6765968934)"
Lower West Side,31,ARO,Woodwork Lofts,1414-48 W. 21st St.,60608,312-576-7392,Stellar Performance Inc.,10,1167176.940686934,1890229.8386293727,41.8543483216,-87.6618752556,"(41.8543483216, -87.6618752556)"
Montclare,18,Senior,The Montclare Senior Residences,6650 W. Belden Ave.,60707,773-237-3831,Pacific Management Inc.,7,1131547.9315415001,1914379.4156676917,41.9213082228,-87.792090958,"(41.9213082228, -87.792090958)"
Montclare,18,ARO,"6602, 6614 W. Diversey","6602,6614 W. Diversey Ave.",60707,708-867-3799,Zitella Development,3,1131884.3721412525,1917931.506877665,41.9310497553,-87.7907721868,"(41.9310497553, -87.7907721868)"
Montclare,18,ARO,2931-57 N. Harlem LLC,2931-57 N. Harlem Ave.,60707,708-867-3799,Zitella Development,5,1127615.033474909,1918797.8863199737,41.9335002731,-87.8064419298,"(41.9335002731, -87.8064419298)"
Montclare,18,ARO,Harlem & Wrightwood,2601-19 N. Harlem Ave.,60707,312-671-0777,NOAH Properties,2,1127689.8729436453,1916489.6152564737,41.9271648255,-87.8062190443,"(41.9271648255, -87.8062190443)"
Near North Side,8,Multifamily,Parkside-I Rental,545 W. Division St.,60610,312-944-8500,Holsten Management Corp.,116,1172154.2889429512,1908220.9975412255,41.9036090085,-87.6430753954,"(41.9036090085, -87.6430753954)"
Near North Side,8,Multifamily,Parkside of Old Town Phase IIA,544 W. Oak St.,60610,312-640-6032,Holsten Real Estate Dev. Corp.,111,1172196.0320095103,1907097.5331471777,41.9005252379,-87.6429552753,"(41.9005252379, -87.6429552753)"
Near North Side,8,Multifamily,North Town Village II,1311 N. Halsted St.,60642,312-944-9488,Holsten Real Estate Dev. Corp.,112,1170813.0619101573,1908876.8619034237,41.9054382467,-87.6479827434,"(41.9054382467, -87.6479827434)"
Near North Side,8,Supportive Housing,The Midwest/Carroll Park Apts.,1333 N. Kingsbury St.,60622,312-337-5339,Holsten Real Estate Dev. Corp.,40,1170359.4541896505,1908979.9292605727,41.9057310023,-87.6496459664,"(41.9057310023, -87.6496459664)"
Near North Side,8,ARO,Xavier Chicago,625 W. Division St.,60622,312-642-2279,Greystar Property Management,24,1171812.2504586265,1908210.3876526821,41.9035874398,-87.6443320836,"(41.9035874398, -87.6443320836)"
Near North Side,8,Multifamily,Parkside of Old Town IIB,459 W. Division St.,60622,312=944-8500,Holsten Real Estate Dev. Corp.,94,1172865.27076405,1908241.2365126673,41.9036488171,-87.6404632193,"(41.9036488171, -87.6404632193)"
Near North Side,8,Multfamily,Parkside of Old Town IIB,1151 N. Cleveland Ave.,60622,312-944-8500,Holsten Real Estate Dev. Corp.,12,1172709.4077269707,1907999.7874723207,41.902989721,-87.6410428925,"(41.902989721, -87.6410428925)"
Near North Side,8,Multifamily,Clybourn 1200,1200 N. Clybourn Ave.,60622,312-477-7442,Interstate Realty Management Co.,52,1173039.7455326011,1908293.945525087,41.9037895847,-87.6398207738,"(41.9037895847, -87.6398207738)"
Near North Side,8,Supportive,Carling Hotel,1512 N. LaSalle St.,60610,312-421-1170,Interstate Realty Management Co.,80,1174812.4459298386,1910422.213335071,41.9095901427,-87.6332454838,"(41.9095901427, -87.6332454838)"
Near North Side,8,ARO,Atrium at Old Town Park,300 W. Hill St.,60610,312-642-8707,Omni Group,41,1174106.1035957385,1907721.5734732654,41.9021952433,-87.6359209164,"(41.9021952433, -87.6359209164)"
Near South Side,33,Senior,Senior Suites of Central Station,1400 S. Indiana Ave.,60605,312-913-9333,Senior Lifestyle Corp.,276,1177842.0936783925,1893842.680241957,41.8640266649,-87.622620427,"(41.8640266649, -87.622620427)"
Near South Side,33,Supportive Housing,The Studios,1801 S. Wabash St.,60616,312-326-5200,East Lake Management Co.,96,1177086.6977832485,1891564.720194449,41.857792921,-87.6254623688,"(41.857792921, -87.6254623688)"
Near South Side,33,Multifamily,Hilliard Homes Phase I,2030 S. State St.,60616,312-225-7610,Holsten Real Estate Dev. Corp.,170,1176604.642296739,1890373.5034965982,41.854535033,-87.6272677388,"(41.854535033, -87.6272677388)"
Near South Side,33,Senior,Hilliard Homes Phase I,30 W. Cermak Road,60616,312-326-1455,Holsten Real Estate Dev. Corp.,151,1176346.441206223,1889816.861403971,41.8530133902,-87.628232211,"(41.8530133902, -87.628232211)"
Near South Side,33,Multifamily,Hilliard Homes Phase II,2031 S. Clark St.,60616,312-326-1455,Holsten Management Corp.,176,1175862.8657496881,1890322.361118107,41.8544114001,-87.6299918764,"(41.8544114001, -87.6299918764)"
Near South Side,33,Senior,Hilliard Homes Phase II,30 W. Cermak Road,60616,312-326-1466,Holsten Management Corp.,151,1176346.441206223,1889816.861403971,41.8530133902,-87.628232211,"(41.8530133902, -87.628232211)"
Near South Side,33,Senior,G&A Senior Residences at Eastgate Village,300 E. 26th Street,60616,773-381-7400,Eastgate Village Partners LP,127,1178501.1617860266,1887204.439847358,41.8457959044,-87.6204033747,"(41.8457959044, -87.6204033747)"
Near West Side,28,Multifamily,Westhaven Park Phase IIA,2237 W. Maypole Ave.,60612,312-455-0009,Interstate Realty Management Co.,92,1161390.3474516731,1900920.9664023356,41.8838079875,-87.6828170157,"(41.8838079875, -87.6828170157)"
Near West Side,28,Multifamily,Westhaven Park Phase IIB,110 N. Wood St.,60612,312-491-1114,Interstate Realty Management Co.,176,1164349.325312463,1900851.1201508911,41.8835542602,-87.6719533672,"(41.8835542602, -87.6719533672)"
Near West Side,28,Multifamily,Westhaven Park Phase IIC,1939 W. Lake St.,60612,312-455-0009,Interstate Realty Management Co.,42,1163284.2573568304,1901334.7365981778,41.8849038015,-87.6758507682,"(41.8849038015, -87.6758507682)"
North Lawndale,29,Supportive Housing,Independence Apts.,927 S. Independence Blvd.,60624,773-549-8300,Realty & Mortgage Co.,58,1151446.0748254498,1895529.681933545,41.8692147569,-87.7194750917,"(41.8692147569, -87.7194750917)"
Near West Side,28,Multifamily,Roosevelt Square Phase I /ABLA Rental,1222 W. Roosevelt Road,60607,312-948-0116,Related Management Co. LP,105,1168285.1327187584,1894881.9846013894,41.8670903488,-87.6576733813,"(41.8670903488, -87.6576733813)"
Near West Side,28,Senior,Roosevelt Place,1401 W. Roosevelt Road,60608,312-733-2436,"East Lake Management Group, Inc.",181,1167191.3960007455,1894769.7970191787,41.866806049,-87.6616918421,"(41.866806049, -87.6616918421)"
Near West Side,28,Senior,Loomis Court,1314 W. 15th St.,60608,312-850-4128,CHA,68,1167767.3949669574,1892902.5811651663,41.8616698673,-87.659631083,"(41.8616698673, -87.659631083)"
Near West Side,28,Multifamily,Newberry Park Apts.,1355 S. Blue Island Ave.,60608,312-563-0099,AIMCO,124,1168817.2778686853,1893757.841159408,41.8639940988,-87.6557523872,"(41.8639940988, -87.6557523872)"
Near West Side,28,Multifamily,Near West Side Apts.,216 S. Hoyne Ave.,60612,312-738-2280,Baker-Simmons Apartments,84,1162403.5672647401,1898857.8894641905,41.8781255904,-87.6791541271,"(41.8781255904, -87.6791541271)"
Near West Side,28,Multifamily,St. Andrew's Court,50 N. Hoyne Ave.,60612,312-226-7620,St. Andrew's Court LP,15,1162359.526334929,1900563.4445682655,41.8828067022,-87.6792681084,"(41.8828067022, -87.6792681084)"
Near West Side,28,Multifamily,Jackson Square West End,2425 W. Adams St.,60612,312-492-6645,East Lake Management Co.,115,1160165.7461984286,1898949.649577087,41.8784239004,-87.6873683543,"(41.8784239004, -87.6873683543)"
Near West Side,28,Supportive,Harvest Commons,1519 W. Warren Blvd.,60607,312-660-1354,Heartland Houisng Inc.,89,1165979.2995774737,1900396.393421699,41.8822718277,-87.6659809767,"(41.8822718277, -87.6659809767)"
Near West Side,28,Supportive,Lake Street Studios,727 W. Lake St.,60661,312-274-8200,Interfaith Housing Corp.,61,1171177.9741036717,1901637.3954510768,41.885564701,-87.6468550832,"(41.885564701, -87.6468550832)"
Near West Side,28,Multifamily,City Gardens,320 S. Maplewood Ave.,60612,844-842-2779,Interstate Realty Management Co.,76,1159392.5066662028,1898418.3701020337,41.8769819546,-87.6902221443,"(41.8769819546, -87.6902221443)"
New City,61,Multifamily,Senior Suites of New City,4845 S. Western Blvd.,60609,773-523-9333,Senior Lifestyle Corp.,115,1161385.3739578223,1872314.958613434,41.8053101773,-87.6836299382,"(41.8053101773, -87.6836299382)"
New City,61,Senior,West Haven Homes,850 W. Garfield Blvd.,60609,773-536-3057,"Universal Management Service, Inc.",110,1171337.269424133,1868414.146219006,41.7943936951,-87.6472446717,"(41.7943936951, -87.6472446717)"
New City,61,Senior,New City Supportive Living,4707 S. Marshfield Ave.,60609,773-376-1223,BMA Management Ltd.,101,1166174.2753144219,1873464.518118208,41.8083640191,-87.666033435,"(41.8083640191, -87.666033435)"
New City,61,Multifamily,Casa Hidalgo,4600 S. Wood St.,60609,312-248-8355,The Resurrection Project,10,1165081.399976435,1874156.2607611653,41.8102854563,-87.6700222697,"(41.8102854563, -87.6700222697)"
North Center,5,Senior,North Center Senior Apts.,2324 W. Irving Park Road,60618,773-478-8900,"Metroplex, Inc.",60,1160064.9005808276,1926543.1808314822,41.9541446663,-87.6869750499,"(41.9541446663, -87.6869750499)"
North Center,5,ARO,1911-21 W. Irving Park Rd.,1911-21 W. Irving Park Rd.,60613,312-285-3749,Campell Street Asset Management Inc.,2,1162826.370862338,1926537.7081131416,41.9540720487,-87.6768236931,"(41.9540720487, -87.6768236931)"
North Lawndale,29,Senior,Roosevelt Towers,3440 W. Roosevelt Road,60624,773-265-6961,"East Lake Management Group, Inc.",104,1153440.1241936614,1894532.7749594802,41.8664397713,-87.7121808603,"(41.8664397713, -87.7121808603)"
North Lawndale,29,Senior,Tabernacle Apts.,3836 W. Cermak Road,60623,773-762-3389,Lawndale Christian Residential Svcs.,126,1150987.190267074,1889144.7486111482,41.8517027368,-87.7213268803,"(41.8517027368, -87.7213268803)"
North Lawndale,29,Multifamily,Lazarus Apartments,1859 S. Pulaski Ave.,60623,773-762-3389,Lawndale Christian Residential Svcs.,26,1150056.0629614652,1890463.503159668,41.8553397217,-87.7247100763,"(41.8553397217, -87.7247100763)"
North Lawndale,29,Multifamily,Dicksons Estates Apts.,1129 S. Sacramento Ave.,60612,773-638-0386,Dickson Estates Apartments,48,1156574.0087372132,1894894.5102467015,41.8673696101,-87.7006662254,"(41.8673696101, -87.7006662254)"
North Lawndale,29,Multifamily,Praise Apts.,1859 S. Pulaski Road,60623,773-762-3389,Lawndale Christian Residential Svcs.,11,1150056.0629614652,1890463.503159668,41.8553397217,-87.7247100763,"(41.8553397217, -87.7247100763)"
North Lawndale,29,Multifamily,Fountain View Apts.,1331 S. Independence Blvd.,60623,773-762-3389,Lawndale Christian Residential Svcs.,32,1151511.1578080195,1893415.133168019,41.8634109156,-87.7192916814,"(41.8634109156, -87.7192916814)"
North Lawndale,29,Multifamily,Lawndale Restoration II Apts. (scattered sites),10 N. Hamlin Ave.,60613,312-337-5339,Holsten Management Corp.,170,1151024.3417191259,1899855.0564051233,41.8810923305,-87.7209100899,"(41.8810923305, -87.7209100899)"
North Lawndale,29,Multifamily,Dr. King Apts.,1550 S. Hamlin Ave.,60623,773-776-7233,Lawndale Christian Residential Svcs.,45,1151263.6234547235,1891891.9301081835,41.8592359223,-87.720240298,"(41.8592359223, -87.720240298)"
North Lawndale,29,Supportive/HIV/AIDS,Hope House,1251 S. Sawyer Ave.,60623,773-935-4663,"AIDSCare, Inc.",80,1154939.0234203928,1893956.6797284372,41.8648290106,-87.7066936632,"(41.8648290106, -87.7066936632)"
North Lawndale,29,Supportive/Youth/Kinship Families,Sankofa House,4041 W. Roosevelt Road,60624,773-257-8800,Interfaith Housing Corp.,32,1149479.8229627917,1894358.7814178746,41.8660400256,-87.7267241437,"(41.8660400256, -87.7267241437)"
North Lawndale,29,Multifamily,Dicksons Estates Apts.,1129 S. Sacramento Ave.,60612,773-638-0386,Dickson Estates Apartments,42,1156574.0087372132,1894894.5102467015,41.8673696101,-87.7006662254,"(41.8673696101, -87.7006662254)"
North Lawndale,29,Multifamily,Renaissance Place Apts.,3128 W. Douglas Blvd.,60623,773-762-3389,Lawndale Christian Residential Svcs.,11,1155600.259703129,1893326.919926386,41.8630876114,-87.7042831894,"(41.8630876114, -87.7042831894)"
North Lawndale,29,Multifamily,Resurrection Homes,1910 S. Albany Ave.,60623,312-248-8355,The Resurrection Project,2,1155952.7147554972,1890430.854230329,41.8551333961,-87.7030673957,"(41.8551333961, -87.7030673957)"
North Lawndale,29,65+/Supportive,Montclare Sr. Residences SLF of Lawndale,4339-47 W. 18th Pl,60623,773-277-0288,Montclare Supportive Living,120,1147554.6573559649,1890603.2643213256,41.8557715313,-87.7338879,"(41.8557715313, -87.7338879)"
North Lawndale,29,Multifamily,Park Douglas,1254-56 S. Fairfiled Ave.,60608,773-893-4800,Interstate Realty Management Co.,7,1158194.723186772,1894001.2512195657,41.8648854853,-87.6947407139,"(41.8648854853, -87.6947407139)"
North Lawndale,29,Multifamily,Park Douglas,1260 S. Fairfield Ave.,60608,773-893-4800,Interstate Realty Management Co.,1,1158196.4804451861,1893944.2527500594,41.8647290398,-87.6947358195,"(41.8647290398, -87.6947358195)"
North Lawndale,29,Multifamily,Park Douglas,1255 S. Fairfield Ave.,60608,773-893-4800,Interstate Realty Management Co.,5,1158274.6832462612,1894003.7788442404,41.8648907888,-87.69444711,"(41.8648907888, -87.69444711)"
North Lawndale,29,Multifamily,Park Douglas,1303-15 S. Fairfield Ave.,60608,773-893-4800,Interstate Realty Management Co.,31,1158279.0515851008,1893857.0219043859,41.8644879836,-87.6944350832,"(41.8644879836, -87.6944350832)"
North Lawndale,29,Multifamily,Park Douglas,1313-15 S. Fairfiled Ave.,60608,773-893-4800,Interstate Realty Management Co.,4,1158281.7771421236,1893762.4625650083,41.8642284474,-87.694427661,"(41.8642284474, -87.694427661)"
North Lawndale,29,Multifamily,Park Douglas,1317-19 S. Fairfield Ave.,60608,773-893-4800,Interstate Realty Management Co.,29,1158282.8734986382,1893724.6338448916,41.8641246191,-87.6944246698,"(41.8641246191, -87.6944246698)"
North Lawndale,29,Multifamily,Park Doulglas,1345 S. Fairfield Ave.,60608,773-893-4800,Interstate Realty Management Co.,17,1158291.0474966373,1893459.9551657317,41.8633981467,-87.6944018945,"(41.8633981467, -87.6944018945)"
North Lawndale,29,Multifamily,Park Douglas,1310-14 S. Washtenaw Ave.,60608,773-893-4800,Interstate Realty Management Co.,10,1158535.3447374038,1893803.5607362052,41.8643360428,-87.6934956949,"(41.8643360428, -87.6934956949)"
North Lawndale,29,Multifamily,Park Douglas,1302-06 S. Washtenaw Ave.,60608,773-893-4800,Interstate Realty Management Co.,5,1158533.5068019812,1893871.3403038937,41.8645220745,-87.6935005875,"(41.8645220745, -87.6935005875)"
North Lawndale,29,Multifamily,Park Douglas,1262-1300 S. Washtenaw Ave.,60608,773-893-4800,Interstate Realty Management Co.,7,1158531.9308701965,1893930.09460845,41.8646833345,-87.6935047653,"(41.8646833345, -87.6935047653)"
North Lawndale,29,Multifamily,Park Douglas,1256-60 S. Washtenaw Ave.,60608,773-893-4800,Interstate Realty Management Co.,1,1158530.365059028,1893988.1931695833,41.8648427949,-87.6935089238,"(41.8648427949, -87.6935089238)"
North Lawndale,29,Multifamily,Park Douglas,2707 W. 12th St.,60808,773-893-4800,Interstate Realty Management Co.,5,1158459.3701222315,1894563.6132195925,41.8664232575,-87.6937538097,"(41.8664232575, -87.6937538097)"
North Lawndale,29,Multifamily,Park Douglas,1224 S. Washtenaw Ave.,60608,773-893-4800,Interstate Realty Management Co.,31,1158521.5169877005,1894293.8494897592,41.8656817278,-87.6935330428,"(41.8656817278, -87.6935330428)"
North Lawndale,29,Multifamily,Park Douglas,1218-20 S. Washtenaw Ave.,60608,773-893-4800,Interstate Realty Management Co.,29,1158519.5699256947,1894367.8003329532,41.8658846962,-87.6935381673,"(41.8658846962, -87.6935381673)"
North Lawndale,29,Multifamily,Park Douglas,2652 W. 12th Pl,60608,773-893-4800,Interstate Realty Management Co.,4,1158622.3984652716,1894325.4581999232,41.8657664016,-87.6931618352,"(41.8657664016, -87.6931618352)"
North Lawndale,29,Multifamily,Park Douglas,2642-44 W. 12 th Pl,60608,773-893-4800,Interstate Realty Management Co.,17,1158736.897402638,1894328.0403686576,41.8657711435,-87.6927414311,"(41.8657711435, -87.6927414311)"
North Lawndale,29,Multifamily,Park Douglas,1220 S. Talman Ave.,60608,773-893-4800,Interstate Realty Management Co.,10,1158851.587031452,1894355.4073302366,41.865843892,-87.6923196475,"(41.865843892, -87.6923196475)"
North Lawndale,29,Multifamily,Park Douglas,2639 W. 12th Pl,60608,773-893-4800,Interstate Realty Management Co.,5,1158801.2980911226,1894249.272043664,41.8655536764,-87.6925071703,"(41.8655536764, -87.6925071703)"
North Park,13,Senior,North Park Village Apts.,5801 N. Pulaski Road,60646,773-478-6890,Elderly Housing Devp. & Operations Corp.,137,1148723.5010362945,1938044.2365664502,41.9859315142,-87.72836921,"(41.9859315142, -87.72836921)"
North Park,13,Senior,Edward M. Marx Apts.,5801 N. Pulaski Road,60646,773-583-4182,Elderly Housing Devp. & Operations Corp.,180,1148723.5010362945,1938044.2365664502,41.9859315142,-87.72836921,"(41.9859315142, -87.72836921)"
North Park,13,Senior,J. Michael Fitzgerald Apts.,5801 N. Pulaski Road,60646,773-588-1725,Elderly Housing Devp. & Operations Corp.,63,1148723.5010362945,1938044.2365664502,41.9859315142,-87.72836921,"(41.9859315142, -87.72836921)"
Norwood Park,10,Senior,Senior Suites of Norwood Park,5700 N. Harlem Ave.,60631,888-339-2315,Senior Lifestyle,84,1127328.8153755069,1937441.8728357102,41.9846662832,-87.8070730079,"(41.9846662832, -87.8070730079)"
Oakland,36,Multifamily,Oakwood Shores Senior Apts.,3750 S. Cottage Grove Ave.,60653,773-373-1300,The Community Builders,76,1181862.3293714053,1880153.551343028,41.8263705668,-87.6082867641,"(41.8263705668, -87.6082867641)"
Oakland,36,Multifamily,Lake Park Crescent,1061 E. 41st Place,60653,773-268-0200,"Draper and Kramer, Inc.",32,1184161.775787701,1877771.78885836,41.8197812878,-87.5999252673,"(41.8197812878, -87.5999252673)"
Oakland,36,Senior,Oakwood Shores Terrace,3755 S. Cottage Grove Ave.,60653,773-373-1300,"The Community Builders, Inc.",148,1181955.520136621,1880134.9315073378,41.826317314,-87.6079454471,"(41.826317314, -87.6079454471)"
Oakland,36,Multifamily,Lakefront Phase II,1060 E. 41st St.,60653,773-548-8795,"Urban Property Advisors, LLC",81,1184020.7643254544,1877980.7112262547,41.820357887,-87.6004360121,"(41.820357887, -87.6004360121)"
Oakland,36,Multifamily,Lakefront Phase II,1140 E. 42nd Pl,60653,773-548-8795,"Urban Property Advisors, LLC",6,1184665.3797816306,1877176.162145845,41.8181350367,-87.598096559,"(41.8181350367, -87.598096559)"
Oakland,36,Multifamily,Lakefront Phase II,1106 E. 42nd Pl,60653,773-548-8795,"Urban Property Advisors, LLC",3,1184320.236957846,1877174.699355578,41.8181391197,-87.5993626833,"(41.8181391197, -87.5993626833)"
Oakland,36,Multifamily,Lakefront Phase II,4116 S. Oakenwald Ave.,60653,773-548-8795,"Urban Property Advisors, LLC",3,1184335.3568820644,1877697.182885262,41.8195724964,-87.5992908459,"(41.8195724964, -87.5992908459)"
Oakland,36,Multifamily,Lakefront Phase II,4130 S. Oakenwald Ave.,60653,773-548-8795,"Urban Property Advisors, LLC",6,1184448.1289726228,1877628.1386261838,41.8193803898,-87.5988793227,"(41.8193803898, -87.5988793227)"
Oakland,36,Multifamily,Lakefront Phase II,4131 S. Lake Park Ave.,60653,773-548-8795,"Urban Property Advisors, LLC",6,1184098.3843568538,1877540.9086956203,41.8191492211,-87.6001650373,"(41.8191492211, -87.6001650373)"
Oakland,36,Multifamily,Lakefront Phase II,4143 S. Lake Park Ave.,60653,773-548-8795,"Urban Property Advisors, LLC",3,1184153.6993964869,1877418.8126280375,41.8188128856,-87.5999659461,"(41.8188128856, -87.5999659461)"
Oakland,36,Multifamily,Lakefront Phase II,1110 E. Bowen Ave.,60653,773-548-8795,"Urban Property Advisors, LLC",3,1184252.7359458555,1877396.3482699357,41.8187489217,-87.5996033527,"(41.8187489217, -87.5996033527)"
Oakland,36,Multifamily,Lakefront Phase II,1113 E. Bowen Ave.,60653,773-548-8795,"Urban Property Advisors, LLC",6,1184313.1304418822,1877335.2356509084,41.8185798091,-87.5993837219,"(41.8185798091, -87.5993837219)"
Oakland,36,Multifamily,Lakefront Phase II,1120 E. Bowen Ave.,60653,773-548-8795,"Urban Property Advisors, LLC",6,1184352.4695753006,1877438.0400388003,41.8188609893,-87.5992361922,"(41.8188609893, -87.5992361922)"
Oakland,36,Multifamily,Lakefront Phase II,1125 E. Bowen Ave.,60653,773-548-8795,"Urban Property Advisors, LLC",3,1184432.1152419779,1877384.381577096,41.8187118792,-87.5989457091,"(41.8187118792, -87.5989457091)"
Oakland,36,Multifamily,Lakefront Phase II,1128 E. Bowen Ave.,60653,773-548-8795,"Urban Property Advisors, LLC",3,1184422.5524900467,1877469.6287674855,41.8189460276,-87.5989781156,"(41.8189460276, -87.5989781156)"
Oakland,36,Multifamily,Lakefront Phase II,1137 E. Bowen Ave.,60653,773-548-8795,"Urban Property Advisors, LLC",3,1184548.9669492804,1877442.5032902623,41.8188686278,-87.5985152379,"(41.8188686278, -87.5985152379)"
Oakland,36,Multifamily,"Oakwood Shrs 1A, 1B, 2A, 2B1 (scattered sites)",3859 S. Vincennes Ave.,60653,773-373-1300,The Community Builders,534,1180730.0957524108,1879250.6926295802,41.8239192007,-87.6124684434,"(41.8239192007, -87.6124684434)"
Portage Park,15,Senior,The Kilpatrick Renaissance,4655 W. Burteau Ave.,60641,773-283-4655,The Renaissance Cos.,98,1144211.7673399127,1927249.5541953251,41.9563963216,-87.7452358895,"(41.9563963216, -87.7452358895)"
Portage Park,15,ARO,4015 Narragansett LLC,4015-23 N. Narragansett Ave.,60634,708-867-3799,Zidan Management Group,2,1133012.8254330996,1926100.1040724448,41.9534456208,-87.7864337467,"(41.9534456208, -87.7864337467)"
Pullman,50,Multifamily,Pullman Wheelworks,901 E. 104th St.,60628,773-785-1300,Mercy Housing,210,1184202.9371831105,1836150.1831583367,41.7055665942,-87.6010740303,"(41.7055665942, -87.6010740303)"
Pullman,50,Senior,Pullman Suites,15 E. 112th Place,60628,773-840-3993,Triangle & Assoc.,60,1178428.4418867638,1830343.0304133776,41.6897637422,-87.6223950849,"(41.6897637422, -87.6223950849)"
Riverdale,54,Senior,Concordia Apts.,13037 S. Daniel Dr.,60627,773-995-5200,"DRE, Inc.",75,1180294.2738928266,1818758.3719629094,41.6579312533,-87.6159174009,"(41.6579312533, -87.6159174009)"
Rogers Park,1,Supportive Housing,Wayne Street Apts.,6808 N. Wayne Ave.,60626,773-572-5272,The Thresholds,297,1165865.3477642245,1945401.688805442,42.0057709728,-87.6651110904,"(42.0057709728, -87.6651110904)"
Rogers Park,1,Senior,Morse Senior Apts.,6928 N. Wayne Ave.,60626,312-602-6207,Morse Urban Dev.,44,1165843.8983617804,1946058.5134415056,42.0075737709,-87.6651711448,"(42.0075737709, -87.6651711448)"
Rogers Park,1,Senior,James Sneider Apts.,7450 N. Rogers Ave.,60626,773-743-3699,Hispanic Housing Dev. Corp.,57,1163640.7090683652,1949531.1714154778,42.0171497111,-87.6731785733,"(42.0171497111, -87.6731785733)"
Rogers Park,1,Senior,Wayne Senior Housing,6928 N. Wayne Ave.,60626,773-274-0177,CIG Management,119,1165843.8983617804,1946058.5134415056,42.0075737709,-87.6651711448,"(42.0075737709, -87.6651711448)"
Roseland,49,Supportive Housing,Wentworth Commons,11045 S. Wentworth Ave.,60628,773-568-7804,Mercy Housing Lakefront,50,1176951.4016152027,1831516.0158972335,41.6930159121,-87.6277673462,"(41.6930159121, -87.6277673462)"
Roseland,49,Multifamily,Roseland Ridge Apts.,10513 S. Michigan Ave.,60628,773-341-3158,NHS Redevelopment Corp.,51,1178893.6986119405,1835198.53356157,41.7030773785,-87.6205446771,"(41.7030773785, -87.6205446771)"
Roseland,49,Supportive Housing,Holland Apartments,240 W. 107th Place,60628,773-568-3031,Mercy Housing,40,1176448.51184587,1833690.9859369479,41.698995638,-87.6295434504,"(41.698995638, -87.6295434504)"
Roseland,49,Senior,Victory Center of Roseland,10450 S. Michigan Ave.,60628,773-468-6400,Pathway Senior Living,81,1178829.4007118938,1835494.4053217333,41.7038907515,-87.6207711553,"(41.7038907515, -87.6207711553)"
Roseland,49,Senior,Roseland Ridge Senior Apts.,10400-30 S. Michigan Ave.,60628,773-548-8301,Neighborhood Housing Services,124,1178859.4647864362,1836023.490738764,41.7053419518,-87.6206450334,"(41.7053419518, -87.6206450334)"
Roseland,49,Inter-generational,Roseland Village Grand-Family Apts.,63 E. 104th St.,60628,773-468-1901,Mercy Housing,10,1178767.712661875,1835996.4329017526,41.7052697846,-87.6209818377,"(41.7052697846, -87.6209818377)"
South Chicago,46,Senior,Victory Center of South Chicago,3251 E. 92nd St.,60617,773-449-2600,Pathway Senior Living,60,1199523.085420141,1844538.4563788343,41.7282135464,-87.5446927939,"(41.7282135464, -87.5446927939)"
South Chicago,46,Supportive Housing,Bettendorf Place SRO,8425 S. Saginaw Ave.,60617,773-359-4902,Alexian Brothers Bonaventure House,112,1195337.9188801304,1849509.6505140746,41.7419591238,-87.5598598952,"(41.7419591238, -87.5598598952)"
South Chicago,46,Senior,Victory Center of South Chicago,9200 S. Burley Ave.,60617,773-449-2600,Pathway Senior Living,23,1199232.9011781784,1844538.0998224837,41.7282198588,-87.5457557823,"(41.7282198588, -87.5457557823)"
South Chicago,46,Multifamily,Casa Kirk,3200 E. 92nd St.,60617,773-734-2884,Interfaith Housing Corp.,112,1198941.1027295904,1844604.277047114,41.7284087757,-87.546822457,"(41.7284087757, -87.546822457)"
South Deering,51,Senior,Porta Coeli Residence,2260 E. 99th St.,60617,773-374-2470,Catholic Charities,86,1193007.252136006,1839809.524960109,41.7153982408,-87.5687149518,"(41.7153982408, -87.5687149518)"
South Lawndale,30,Multifamily,Casa Sor Juana,2700 S. Drake Ave.,60623,312-850-1935,The Resurrection Project,29,1153098.3021828188,1885797.7278244356,41.842476558,-87.713667149,"(41.842476558, -87.713667149)"
South Lawndale,30,Multifamily,Resurrection Homes,2243 S. Central Park Ave.,60623,312-248-8355,The Resurrection Project,2,1152765.0594937827,1888679.5885914315,41.8503913261,-87.714813899,"(41.8503913261, -87.714813899)"
South lawndale,30,Multifamily,Casa Tabasco,3515-17 W. 23rd St.,60623,312-248-8355,The Resurrection Project,8,1153205.1486497156,1888451.5619384795,41.849756884,-87.713204726,"(41.849756884, -87.713204726)"
South Shore,43,Multifamily,Highlands Tudor Manor,7018 S. Cregier Ave.,60649,773-667-1940,Related Management Co. LP,18,1189376.953607129,1858721.452356422,41.7673820796,-87.5814053802,"(41.7673820796, -87.5814053802)"
South Shore,43,Senior,Senior Suites of Rainbow Beach,2804 E. 77th Place,60649,773-374-5333,Senior Lifestyle Corp.,87,1196631.9120805236,1854159.4837005038,41.7546866025,-87.5549647165,"(41.7546866025, -87.5549647165)"
South Shore,43,Senior,Rainbow's End,7538 S. Kingston Ave.,60649,773-768-5402,"Urban Property Advisors, LLC",84,1194467.2799732804,1855300.5607110243,41.7578712724,-87.5628598349,"(41.7578712724, -87.5628598349)"
South Shore,43,Senior,Senior Suites of South Shore,2355 E. 67th St.,60649,773-324-2333,Senior Lifestyle Corp.,55,1193073.3229901514,1860960.1627823284,41.7734357917,-87.567783821,"(41.7734357917, -87.567783821)"
South Shore,43,Multifamily,Jeffrey Towers Apts.,7020 S. Jeffrey Blvd.,60649,872-777-4924,Interfaith Housing Corp.,136,1190721.263198273,1858722.629399855,41.7673529546,-87.5764779584,"(41.7673529546, -87.5764779584)"
Uptown,3,Supportive Housing,Major Jenkins Apts.,5012 N. Winthrop Ave.,60640,773-506-3486,Mercy Housing,96,1167919.6152384933,1933730.4380171197,41.9737005572,-87.6578919355,"(41.9737005572, -87.6578919355)"
Uptown,3,Multifamily,Uptown Preservation Apts.,900 W. Windsor Ave.,60640,773-286-5400,Leasing & Management Co. Inc.,160,1169410.7238433592,1930422.9420342208,41.9645923009,-87.6525054366,"(41.9645923009, -87.6525054366)"
Uptown,3,Multifamily,Uptown Preservation Apts.,4431 N. Clifton Ave.,60640,773-286-5400,Leasing & Management Co. Inc.,18,1167869.5114808967,1929704.2639931454,41.9626536881,-87.6581928459,"(41.9626536881, -87.6581928459)"
Uptown,3,Multifamily,Uptown Preservation Apts.,927 W. Wilson Ave.,60640,773-286-5400,Leasing & Management Co. Inc.,18,1169143.7726304997,1930693.0740830055,41.9653393681,-87.653479057,"(41.9653393681, -87.653479057)"
Uptown,3,Multifamily,Malden Arms Apts.,4727 N. Malden St.,60640,773-334-2164,Mercy Housing,41,1166646.8377223643,1931640.3450981718,41.967992713,-87.6626324087,"(41.967992713, -87.6626324087)"
Uptown,3,Multifamily,Sunnyside Kenmore Apts.,847-49 W. Sunnyside Ave.,60640,773-769-3116,"Metroplex, Inc.",83,1169606.6776593295,1930039.3360946288,41.9635353994,-87.6517961908,"(41.9635353994, -87.6517961908)"
Uptown,3,Multifamily,Sunnyside Kenmore Apts.,4130 N. Kenmore Ave.,60640,773-769-3116,"Metroplex, Inc.",13,1168380.0304702325,1927860.1940091166,41.9575824413,-87.6563694357,"(41.9575824413, -87.6563694357)"
Uptown,3,Senior,Wilson Yard Senior Apts.,1032 W. Montrose Ave,60613,866-227-0438,Holsten Real Estate Dev. Corp.,13,1168438.959159473,1929421.6495916455,41.9618658533,-87.6561074284,"(41.9618658533, -87.6561074284)"
Uptown,3,Senior,Kenmore Senior Housing,5040 N. Kenmore Ave.,60640,773-769-3006,The Habitat Co.,98,1168292.8321203333,1934023.2899432692,41.9744960685,-87.6565110221,"(41.9744960685, -87.6565110221)"
Uptown,3,Supportive Housing,Harold Washington Apts.,4946 N. Sheridan Road,60640,312-447-4621,Mercy Housing,100,1168689.9333343573,1933461.5872546497,41.9729461221,-87.6550671247,"(41.9729461221, -87.6550671247)"
Uptown,3,Multifamily,850 Eastwood,850 W. Eastwood Ave.,60640,773-275-6877,Mercy Housing,69,1169619.1131885468,1931130.1859241405,41.9665284532,-87.6517185639,"(41.9665284532, -87.6517185639)"
Uptown,3,Senior,Ruth Shriman House,4040 N. Sheridan Road,60613,773-665-2210,Interfaith Housing Corp.,231,1168832.7496225224,1927172.3028950733,41.9556850173,-87.6547251281,"(41.9556850173, -87.6547251281)"
Uptown,3,ARO,Somerset Place Apts.,5009 N. Sheridan Road,60640,317-596-2168,Zidan Management Group,16,1168763.5591734762,1933706.9211640332,41.9736177254,-87.6547892431,"(41.9736177254, -87.6547892431)"
Uptown,3,Multifamily,Magnolia Court Apts.,4878 N. Magnolia Ave.,60640,773-878-2186,"Park, Inc.",60,1167014.0873062664,1932819.2730910573,41.9712198343,-87.6612480605,"(41.9712198343, -87.6612480605)"
Uptown,3,ARO,4801 N. Ravenswood Ave.,4801 N. Ravenswood Ave.,60640,773-929-7050,Hayes Properties Inc.,4,1163544.4143232377,1931973.6884389692,41.9689734978,-87.6740303236,"(41.9689734978, -87.6740303236)"
Uptown,3,ARO,811 Uptown,811 W. Agatite Ave.,60640,312-402-7784,RL Accelerated,22,1169980.75332239,1929712.3690798064,41.962630019,-87.650430429,"(41.962630019, -87.650430429)"
Washington Heights,73,Senior,Senior Suites of Washington Heights,848 W. 103rd St.,60643,773-233-1333,Senior Lifestyle Corp.,82,1172263.7266894968,1836577.477182002,41.7070094274,-87.6447816603,"(41.7070094274, -87.6447816603)"
Washington Heights,73,Senior,Brainerd Senior Center,8915 S. Loomis St.,60620,773-429-1501,Realty & Mortgage Co.,60,1168602.533575851,1845525.7983164364,41.7316445313,-87.6579318552,"(41.7316445313, -87.6579318552)"
Washington Park,40,People with Disabilities,Urbanite Apartments,5441 S. Michigan Ave.,60615,773-285-3341,Assoc. of Chicago Day School,85,1178127.357872784,1868790.5953475153,41.7952753031,-87.6223343775,"(41.7952753031, -87.6223343775)"
Washington Park,40,People with Disabilities,"Brand New Beginnings, Inc.",5801 S. Michigan Ave.,60637,773-955-5780,Harriet Tubman NFP,25,1178188.1637615676,1866559.6547361617,41.7891520073,-87.6221790762,"(41.7891520073, -87.6221790762)"
Washington Park,40,Multifamily,St. Edmund's Manor,5947 S. Indiana Ave.,60653,773-548-8924,St. Edmund's Manor Ltd.,24,1178662.0563776551,1865432.9159510299,41.7860493567,-87.6204757369,"(41.7860493567, -87.6204757369)"
Washington Park,40,Multifamily,St. Edmund's Village,6253 S. Michigan Ave.,60653,773-493-2411,St. Edmund's Village LP,31,1178307.6971999898,1863372.5987250379,41.7804036945,-87.6218374892,"(41.7804036945, -87.6218374892)"
Washington Park,40,Multifamily,Michigan Plaza (St. Edmund's Plaza),5701 S. Michigan Ave.,60653,773-548-8924,Michigan Plaza LP,230,1178170.3707827867,1867225.8041226729,41.7909803898,-87.6222241137,"(41.7909803898, -87.6222241137)"
Washington Park,40,Multifamily,Harriett Tubman Apts.,5751-59 S. Michigan Ave.,60637,773-752-9760,Brand New Beginnings Inc.,65,1178184.0504477206,1866708.8159741443,41.7895614137,-87.6221896343,"(41.7895614137, -87.6221896343)"
Washington Park,40,Supportive/Kinship Families,Coppin House,325-43 E. 55th Place,60637,773-752-2331,Interfaith Housing Corp.,28,1179276.0774989587,1868251.4604524123,41.7937697184,-87.6181384856,"(41.7937697184, -87.6181384856)"
Washington Park,40,Multifamily,St. Edmund's Commons,110 E. 60th St.,60637,773-420-3328,St. Edmund's Redevelopment Corp.,54,1178315.9939265617,1865303.0852583789,41.7857009548,-87.6217485015,"(41.7857009548, -87.6217485015)"
Washington Park,40,Senior HUD 202,St. Edmund's Corners,5556 S. Michigan Ave.,60637,773-667-7583,St. Edmund's Redevelopment Corp.,53,1178070.4429785577,1867951.6767417216,41.7929745219,-87.6225685185,"(41.7929745219, -87.6225685185)"
Washington Park,40,Senior,St. Edmund's Tower Annex,6151 S. Michigan Ave.,60637,773-493-2411,St. Edmund's Redevelopment Corp.,34,1178260.9311049972,1864074.9203618995,41.7823319979,-87.6219876398,"(41.7823319979, -87.6219876398)"
Washington Park,40,Multifamily,St. Edmund's Oasis,6100-24 S. Prairie Ave.,60637,773-493-2411,St. Edmund's Redevelopment Corp.,27,1179047.0737345417,1864591.0977350238,41.7837305569,-87.6190897249,"(41.7837305569, -87.6190897249)"
Washington Park,40,Multifamily,St. Edmund's Oasis,215 E. 61st St.,60637,773-493-2411,St. Edmund's Redevelopment Corp.,5,1178814.519628001,1864578.624918864,41.7837016281,-87.6199427242,"(41.7837016281, -87.6199427242)"
Washington Park,40,Multifamily,St. Edmund's Oasis,300-10 E. 61st St.,60637,773-493-2411,St. Edmund's Redevelopment Corp.,12,1179107.395470421,1864667.2956781546,41.7839382764,-87.6188662443,"(41.7839382764, -87.6188662443)"
Washington Park,40,Multifamily,St. Edmund's Oasis,6143-51 S. Indiana Ave.,60637,773-493-2411,St. Edmund's Redevelopment Corp.,14,1178697.321945643,1864156.9100534234,41.782547068,-87.6203852293,"(41.782547068, -87.6203852293)"
Washington Park,40,Senior,TRC Senior Village I,346 E. 53rd St.,60615,773-924-9270,The Renaissance Collaborative,35,1179447.490115856,1869994.8980902864,41.7985499558,-87.6174566934,"(41.7985499558, -87.6174566934)"
West Englewood,67,Multifamily,Clara Temple Hampton Residence,1656 W. 63rd St.,60636,773-778-2884,West Englewood Dev. Org.,71,1166121.3452266525,1862956.6860697763,41.779530386,-87.6665265092,"(41.779530386, -87.6665265092)"
West Englewood,67,Multifamily,Clara's Village,2115 W. 63rd St,60636,773-434-4929,Interfaith Housing Corp.,13,1163257.2027996134,1862800.706640397,41.7791628235,-87.6770311971,"(41.7791628235, -87.6770311971)"
West Elsdon,62,Multifamily,Park Place Family Apts.,3630 W. 51st St.,60632,773-767-7260,"Leasing and Management Co., Inc.",78,1152916.2720683936,1870602.658884233,41.8007828624,-87.7147366177,"(41.8007828624, -87.7147366177)"
West Garfield Park,26,Supportive Housing,The Rebecca Johnson Apts.,2822 W. Jackson Blvd.,60612,773-638-6393,Deborah's Place Ltd.,52,1157527.9754137222,1898606.336367213,41.8775358858,-87.6970630483,"(41.8775358858, -87.6970630483)"
West Garfield Park,26,Senior,Fannie Emanuel Apts.,3916 W. Washington Blvd.,60624,312-913-5812,McCormack Baron Management Inc.,181,1150182.6404532283,1900168.6427465347,41.8819692864,-87.7239926128,"(41.8819692864, -87.7239926128)"
West Garfield Park,26,Senior,Midwest Apts.,6 N. Hamlin Blvd.,60624,773-265-0323,Holsten Management Corp.,276,1151025.5258227233,1899809.6195115987,41.8809676236,-87.7209069325,"(41.8809676236, -87.7209069325)"
West Lawn,65,Seniors,Senior Suites of Midway Village,6800 S. Keating Ave.,60629,888-339-2315,Senior Lifestyle Corp.,89,1145974.0736370576,1859144.9235298105,41.7694752347,-87.740486055,"(41.7694752347, -87.740486055)"
West Pullman,53,Supportive Housing,Hancock House,12045 S. Emerald Ave.,60628,773-568-3000,Source Works Development,90,1173523.536248522,1824810.0626359796,41.6746900779,-87.6405148423,"(41.6746900779, -87.6405148423)"
West Pullman,53,Senior,All Saints Senior Residence,11701 S. State St.,60628,312-655-7440,Catholic Charities Housing Devp.,42,1178389.4962318172,1827364.1359557654,41.6815900986,-87.6226276337,"(41.6815900986, -87.6226276337)"
West Pullman,53,Senior,Kennedy Jordan Manor,825 W. 118th St.,60643,773-568-2929,Source Works Management,70,1172827.4538324198,1826559.7203958414,41.679506755,-87.6430113027,"(41.679506755, -87.6430113027)"
West Ridge,2,Senior,G & A Senior Residences at Ravenswood,1818 W. Peterson Ave.,60660,773-381-7400,Eastgate Village Senior Corp.,89,1162949.471947985,1939941.1893128548,41.9908491577,-87.6759930884,"(41.9908491577, -87.6759930884)"
West Ridge,2,Senior,West Ridge Senior Apts.,6142 N. California Ave.,60659,773-381-7400,West Ridge Senior Corp.,117,1156512.510358117,1940837.410770179,41.9934415657,-87.6996454249,"(41.9934415657, -87.6996454249)"
West Ridge,2,Senior,Lincoln Village Senior Apts.,6057 N. Lincoln Ave.,60659,773-338-5900,Perlmark Realty Management,99,1153825.546749503,1940243.3793156522,41.9918656495,-87.7095450826,"(41.9918656495, -87.7095450826)"
West Ridge,2,ARO,"5822 North Western, LLC",5822 N. Western Ave.,60659,773-572-2755,Chicago Apartment Finders,2,1159227.225101105,1938700.5085265036,41.9875222634,-87.6897187055,"(41.9875222634, -87.6897187055)"
West Ridge,2,ARO,Joy Plaza Residences,6411 N. Rockwell Ave.,60645,224-534-9361,Devon NJ LLC,3,1157863.1592300457,1942516.7367385654,41.9980221693,-87.6946311267,"(41.9980221693, -87.6946311267)"
West Town,24,Supportive Housing,Wicker Park Renaissance,1527-31 N. Wicker Park Ave.,60622,773-278-8602,"RRG Development, Inc.",102,1162934.3186359087,1910028.9463462443,41.9087687359,-87.6768915182,"(41.9087687359, -87.6768915182)"
West Town,24,Multifamily,Paseo Boricua Apts.,1154 N. Campbell St.,60622,312-602-6500,Hispanic Housing Dev. Corp.,61,1159482.2925512826,1907856.1047262773,41.902878079,-87.6896325219,"(41.902878079, -87.6896325219)"
West Town,24,Multifamily,La Estancia,2753 W. Division St.,60622,773-227-6332,Bickerdike Redevelopment Corp.,59,1157605.9794619114,1907820.4806240404,41.902818751,-87.6965255554,"(41.902818751, -87.6965255554)"
West Town,24,Multifamily,North and Talman Family Apts.,2654 W. North Ave.,60647,773-486-7410,Hispanic Housing Dev. Corp.,30,1158184.4012101176,1910570.9607547983,41.9103544922,-87.6943256397,"(41.9103544922, -87.6943256397)"
West Town,24,Senior,North & Talman Elderly Apts.,1600 N. Talman Ave.,60647,773-486-7410,Hispanic Housing Dev. Corp.,24,1158416.9732462608,1910568.8103786097,41.9103438337,-87.6934713169,"(41.9103438337, -87.6934713169)"
West Town,24,Multifamily,Boulevard Court Family Housing,1723-33 N. Humboldt Blvd.,60647,773-486-7410,Hispanic Housing Dev. Corp.,52,1156143.3102157223,1911450.1899551263,41.9128086528,-87.701800063,"(41.9128086528, -87.701800063)"
West Town,24,Multifamily,North & Talman Phase III,2656 W. North Ave.,60647,773-602-2888,Hispanic Housing Dev. Corp.,18,1158163.0704036378,1910570.5211780062,41.9103537221,-87.694404013,"(41.9103537221, -87.694404013)"
West Town,24,Multifamily,Borinquen Bella Apts.,"1414,1451 N. Washtenaw Ave.",60622,773-276-5338,LUCHA,23,1158113.714130638,1909378.978040771,41.9070850396,-87.6946179242,"(41.9070850396, -87.6946179242)"
West Town,24,Multifamily,Borinquen Bella Apts.,"1318,1456 N. Rockwell Ave.",60622,773-276-5338,LUCHA,24,1158786.7043239924,1908791.0712498028,41.905457998,-87.6921618816,"(41.905457998, -87.6921618816)"
West Town,24,ARO,1611 West Division,1611 W. Division St.,60622,773-661-5500,M. Fishman & Co.,10,1165376.188062696,1908029.504760357,41.9032305014,-87.667978248,"(41.9032305014, -87.667978248)"
West Town,24,Supportive/Veterans,65th Infantry Boringueneers Apts.,1045 N. Sacramento Blvd.,60622,773-772-4801,Hispanic Housing Dev. Corp.,48,1156229.0258684834,1906960.6475933485,41.9004872305,-87.7016066315,"(41.9004872305, -87.7016066315)"
West Town,24,ARO,Centrum Wicker Park,1664 W. Division St.,60622,312-368-3000,Centrum Partners,6,1164833.0685189522,1908092.5621695416,41.9034150774,-87.6699714414,"(41.9034150774, -87.6699714414)"
West Town,24,ARO,Luxe on Chicago,1838 W. Chicago Ave.,60622,312-424-6225,Fifield Co.,4,1163828.8686311496,1905410.0033834113,41.8960751868,-87.6737358367,"(41.8960751868, -87.6737358367)"
West Town,24,ARO,1237 N. Milwaukee Ave.Owner LLC,1241 N. Milwaukee Ave.,60622,312-883-7331,CIM Group,6,1165423.8123218615,1908434.9306957852,41.9043420044,-87.667791761,"(41.9043420044, -87.667791761)"
West Town,24,ARO,1038 N. Ashland,1038-40 N. Ashland Ave.,60622,312-600-4501,Honore Properties,2,1165493.3221171321,1907177.772489966,41.9008907949,-87.6675722718,"(41.9008907949, -87.6675722718)"
West Town,24,ARO,Seven 10 West,710 W. Grand Ave.,60654,414-369-3511,Outlook Management,1,1171305.6990644336,1903732.3644145823,41.8913106255,-87.6463244631,"(41.8913106255, -87.6463244631)"
West Town,24,ARO,East Village Lofts,1100 N. Ashland Ave.,60622,773-218-7500,Wicker Park Apartments Inc.,1,1165486.1048246317,1907421.2242456314,41.9015589973,-87.667591842,"(41.9015589973, -87.667591842)"
West Town,24,ARO,945 Western,945 N. Western Ave.,60622,773-218-7500,Wicker Park Apartments Inc.,2,1160270.7393195606,1906410.5723550452,41.8988951503,-87.6867764252,"(41.8988951503, -87.6867764252)"
West town,24,ARO,Homer Townhomes,1623 N. Talman Ave.,60647,773-975-7234,Kass Management,5,1158490.6088658273,1910798.2937211422,41.9109720465,-87.6931945157,"(41.9109720465, -87.6931945157)"
Woodlawn,42,Multifamily,Woodlawn-Michigan Development,6446 S. Kenwood Ave.,60637,312-226-2200,Wolcott Real Property LLC,33,1186141.3660938477,1862376.5606601068,41.7774890264,-87.5931497136,"(41.7774890264, -87.5931497136)"
Woodlawn,42,Multifamily,Eddie Mae & Alex Johnson Apts.,6230 S. Dorchester Ave.,60637,773-288-4202,Woodlawn East Community,84,1186573.2624279982,1863816.8653135095,41.7814311307,-87.5915208532,"(41.7814311307, -87.5915208532)"
Woodlawn,42,Multifamily,Renaissance Apts.,6200 S. University Ave.,60637,773-752-9400,AIMCO,64,1184799.335314034,1864093.1165452064,41.7822309985,-87.598015727,"(41.7822309985, -87.598015727)"
Woodlawn,42,Multifamily,WECAN,6450 S. Stony Island Ave.,60637,773-288-3000,WECAN,117,1187957.5964530848,1862318.6370591703,41.7772869881,-87.5864933515,"(41.7772869881, -87.5864933515)"
Woodlawn,42,Multifamily,65th Street Apts.,6600 S. Greenwood Ave.,60637,773-684-2056,"Urban Property Advisors, LLC",42,1184316.0378951721,1861429.0767049037,41.7749319632,-87.5998709117,"(41.7749319632, -87.5998709117)"
Woodlawn,42,Multifamily,65th Street Apts.,6522 S. Ingleside Ave.,60637,773-684-2056,"Urban Property Advisors, LLC",18,1183642.0293026692,1861850.3440547157,41.7761037074,-87.6023285746,"(41.7761037074, -87.6023285746)"
Woodlawn,42,Multifamily,65th Street Apts.,6400 S. Maryland Ave.,60637,773-684-2056,"Urban Property Advisors, LLC",15,1182961.6084218968,1862758.2552538288,41.7786109444,-87.6047947203,"(41.7786109444, -87.6047947203)"
Woodlawn,42,Multifamily,65th Street Apts.,848-58 E. 65th St.,60637,773-684-2056,"Urban Property Advisors, LLC",6,1183196.2396570912,1862140.1148931726,41.7769092523,-87.603953777,"(41.7769092523, -87.603953777)"
Woodlawn,42,Multifamily,65th Street Apts.,817 E. 64th St.,60637,773-684-2056,"Urban Property Advisors, LLC",6,1182886.2259711702,1862714.7936657537,41.7784934339,-87.6050724236,"(41.7784934339, -87.6050724236)"
Woodlawn,42,Multifamily,Dorchester Apts.,1410 E. 62nd St.,60637,773-572-5500,The Thresholds,67,1186722.4042227406,1864209.5724381572,41.7825052194,-87.5909616433,"(41.7825052194, -87.5909616433)"
Woodlawn,42,Senior,Butler Apts.,6146 S. Kenwood Ave.,60637,773-955-9290,Woodlawn Comm. Dev. Corp.,17,1186094.2588179822,1864312.8427305536,41.7828034603,-87.5932613147,"(41.7828034603, -87.5932613147)"
Woodlawn,42,Multifamily,The Grant at Woodlawn Pk Phase I,6227-29 S. Cottage Grove Ave.,60637,312-283-0030,Preservation Housing Management LLC,67,1182676.8468949487,1863775.1466971007,41.7814080037,-87.6058071228,"(41.7814080037, -87.6058071228)"
Woodlawn,42,Multifamily,The Grant at Woodlawn Pk Phase II,6129 S. Cottage Grove Ave.,60637,312-283-0030,Preservation Housing Management LLC,33,1182661.4709824056,1864419.2304494383,41.7831757851,-87.6058435155,"(41.7831757851, -87.6058435155)"
Woodlawn,42,Multifamily,Strand Hotel,6321 S. Cottage Grove Ave.,60637,312-274-9169,Holsten Real Estate Dev. Corp.,63,1182692.1634323038,1863173.7293418557,41.7797573036,-87.6057696255,"(41.7797573036, -87.6057696255)"
Woodlawn,42,Senior,The Burnham at Woodlawn Park,6134 S. Cottage Grove Ave.,60637,773-955-8668,Preservation Housing Management LLC,65,1182583.3423839416,1864354.9440056111,41.7830011908,-87.6061319507,"(41.7830011908, -87.6061319507)"
Woodlawn,42,Multifamily,Trianon Lofts,803 E. 61st St.,60637,773-955-8668,Preservation Housing Management LLC,12,1182659.118095407,1864701.7137693325,41.7839509995,-87.6058433794,"(41.7839509995, -87.6058433794)"
